{
"type": "FeatureCollection",
"name": "hospitals_nyc",
"crs": { "type": "name", "properties": { "name": "urn:ogc:def:crs:OGC:1.3:CRS84" } },
"features": [
{ "type": "Feature", "properties": { "the_geom": null, "FACNAME": "NEW YORK-PRESBYTERIAN/LOWER MANHATTAN HOSPITAL", "ADDRESSNUM": "170", "STREETNAME": "WILLIAM STREET", "ADDRESS": "170 WILLIAM STREET", "CITY": "NEW YORK", "ZIPCODE": 10038.0, "FACTYPE": "HOSPITAL", "FACSUBGRP": "HOSPITALS AND CLINICS", "FACGROUP": "HEALTH CARE", "FACDOMAIN": "HEALTH AND HUMAN SERVICES", "SERVAREA": "Regional", "OPNAME": "The New York and Presbyterian Hospital", "OPABBREV": "Non-public", "OPTYPE": "Non-public", "OVERAGENCY": "NYS Department of Health", "OVERABBREV": "NYSDOH", "OVERLEVEL": "State", "CAPACITY": null, "CAPTYPE": null, "BORO": "MANHATTAN", "BIN": 1001352.0, "BBL": 1001000001.0, "LATITUDE": 40.710293251711761, "LONGITUDE": -74.004951091895251, "XCOORD": 982877.36910320795, "YCOORD": 198055.5179404176, "CD": 101.0, "NTA2010": "MN25", "NTA2020": "MN0101", "COUNCIL": 1.0, "CT2010": 1501.0, "CT2020": 1501.0, "BOROCODE": 1.0, "SCHOOLDIST": 2.0, "POLICEPRCT": 1.0, "DATASOURCE": "nysdoh_healthfacilities", "UID": "027a36bd913d8465670d5dbfaf532ccf" }, "geometry": { "type": "Point", "coordinates": [ -74.004951091895251, 40.710293251711761 ] } },
{ "type": "Feature", "properties": { "the_geom": null, "FACNAME": "BROOKDALE HOSPITAL MEDICAL CENTER", "ADDRESSNUM": "1", "STREETNAME": "BROOKDALE PLAZA", "ADDRESS": "1 BROOKDALE PLAZA", "CITY": "BROOKLYN", "ZIPCODE": 11212.0, "FACTYPE": "HOSPITAL", "FACSUBGRP": "HOSPITALS AND CLINICS", "FACGROUP": "HEALTH CARE", "FACDOMAIN": "HEALTH AND HUMAN SERVICES", "SERVAREA": "Regional", "OPNAME": "The Brookdale Hospital Medical Center", "OPABBREV": "Non-public", "OPTYPE": "Non-public", "OVERAGENCY": "NYS Department of Health", "OVERABBREV": "NYSDOH", "OVERLEVEL": "State", "CAPACITY": null, "CAPTYPE": null, "BORO": "BROOKLYN", "BIN": 3103615.0, "BBL": 3047180001.0, "LATITUDE": 40.654950575674441, "LONGITUDE": -73.912418704415614, "XCOORD": 1008551.0199105229, "YCOORD": 177904.68796876509, "CD": 317.0, "NTA2010": "BK96", "NTA2020": "BK1704", "COUNCIL": 42.0, "CT2010": 89000.0, "CT2020": 89000.0, "BOROCODE": 3.0, "SCHOOLDIST": 23.0, "POLICEPRCT": 67.0, "DATASOURCE": "nysdoh_healthfacilities", "UID": "057440531385e338d9e1cb6f50e27b1b" }, "geometry": { "type": "Point", "coordinates": [ -73.912418704415614, 40.654950575674441 ] } },
{ "type": "Feature", "properties": { "the_geom": null, "FACNAME": "UNIVERSITY HOSPITAL OF BROOKLYN", "ADDRESSNUM": "445", "STREETNAME": "LENOX ROAD", "ADDRESS": "445 LENOX ROAD", "CITY": "BROOKLYN", "ZIPCODE": 11203.0, "FACTYPE": "HOSPITAL", "FACSUBGRP": "HOSPITALS AND CLINICS", "FACGROUP": "HEALTH CARE", "FACDOMAIN": "HEALTH AND HUMAN SERVICES", "SERVAREA": "Regional", "OPNAME": "NYS Department of Health", "OPABBREV": "NYSDOH", "OPTYPE": "Public", "OVERAGENCY": "NYS Department of Health", "OVERABBREV": "NYSDOH", "OVERLEVEL": "State", "CAPACITY": null, "CAPTYPE": null, "BORO": "BROOKLYN", "BIN": 3336186.0, "BBL": 3048380001.0, "LATITUDE": 40.655077991297432, "LONGITUDE": -73.944911010296423, "XCOORD": 999535.41230951296, "YCOORD": 177943.76713392715, "CD": 317.0, "NTA2010": "BK91", "NTA2020": "BK1701", "COUNCIL": 40.0, "CT2010": 81600.0, "CT2020": 81600.0, "BOROCODE": 3.0, "SCHOOLDIST": 18.0, "POLICEPRCT": 67.0, "DATASOURCE": "nysdoh_healthfacilities", "UID": "0ec1c511cbc4a01f5de2c07233ed1b1f" }, "geometry": { "type": "Point", "coordinates": [ -73.944911010296423, 40.655077991297432 ] } },
{ "type": "Feature", "properties": { "the_geom": null, "FACNAME": "LINCOLN MEDICAL & MENTAL HEALTH CENTER", "ADDRESSNUM": "234", "STREETNAME": "EAST 149 STREET", "ADDRESS": "234 EAST 149 STREET", "CITY": "BRONX", "ZIPCODE": 10451.0, "FACTYPE": "HOSPITAL", "FACSUBGRP": "HOSPITALS AND CLINICS", "FACGROUP": "HEALTH CARE", "FACDOMAIN": "HEALTH AND HUMAN SERVICES", "SERVAREA": "Regional", "OPNAME": "NYC Health and Hospitals Corporation", "OPABBREV": "Non-public", "OPTYPE": "Non-public", "OVERAGENCY": "NYS Department of Health", "OVERABBREV": "NYSDOH", "OVERLEVEL": "State", "CAPACITY": null, "CAPTYPE": null, "BORO": "BRONX", "BIN": 2097050.0, "BBL": 2023350016.0, "LATITUDE": 40.817060574419941, "LONGITUDE": -73.924502123750429, "XCOORD": 1005147.3529296648, "YCOORD": 236963.34278791439, "CD": 201.0, "NTA2010": "BX34", "NTA2020": "BX0102", "COUNCIL": 17.0, "CT2010": 6500.0, "CT2020": 6500.0, "BOROCODE": 2.0, "SCHOOLDIST": 7.0, "POLICEPRCT": 40.0, "DATASOURCE": "nysdoh_healthfacilities", "UID": "104dc64744405942bc1b491d730a05ff" }, "geometry": { "type": "Point", "coordinates": [ -73.924502123750429, 40.817060574419941 ] } },
{ "type": "Feature", "properties": { "the_geom": null, "FACNAME": "RUMC-BAYLEY SETON", "ADDRESSNUM": "75", "STREETNAME": "VANDERBILT AVENUE", "ADDRESS": "75 VANDERBILT AVENUE", "CITY": "STATEN ISLAND", "ZIPCODE": 10304.0, "FACTYPE": "HOSPITAL", "FACSUBGRP": "HOSPITALS AND CLINICS", "FACGROUP": "HEALTH CARE", "FACDOMAIN": "HEALTH AND HUMAN SERVICES", "SERVAREA": "Regional", "OPNAME": "Richmond University Medical Center", "OPABBREV": "Non-public", "OPTYPE": "Non-public", "OVERAGENCY": "NYS Department of Health", "OVERABBREV": "NYSDOH", "OVERLEVEL": "State", "CAPACITY": null, "CAPTYPE": null, "BORO": "STATEN ISLAND", "BIN": 5106863.0, "BBL": 5005340001.0, "LATITUDE": 40.622738099807741, "LONGITUDE": -74.075355942773584, "XCOORD": 963331.0293468904, "YCOORD": 166165.6598202062, "CD": 501.0, "NTA2010": "SI37", "NTA2020": "SI0102", "COUNCIL": 49.0, "CT2010": 2700.0, "CT2020": 2700.0, "BOROCODE": 5.0, "SCHOOLDIST": 31.0, "POLICEPRCT": 120.0, "DATASOURCE": "nysdoh_healthfacilities", "UID": "1a6b6ccf41d00fe740aefe014a82e1bd" }, "geometry": { "type": "Point", "coordinates": [ -74.075355942773584, 40.622738099807741 ] } },
{ "type": "Feature", "properties": { "the_geom": null, "FACNAME": "NEW YORK EYE AND EAR INFIRMARY OF MOUNT SINAI", "ADDRESSNUM": "310", "STREETNAME": "EAST 14 STREET", "ADDRESS": "310 EAST 14 STREET", "CITY": "NEW YORK", "ZIPCODE": 10003.0, "FACTYPE": "HOSPITAL", "FACSUBGRP": "HOSPITALS AND CLINICS", "FACGROUP": "HEALTH CARE", "FACDOMAIN": "HEALTH AND HUMAN SERVICES", "SERVAREA": "Regional", "OPNAME": "NY Eye and Ear Infirmary Inc", "OPABBREV": "Non-public", "OPTYPE": "Non-public", "OVERAGENCY": "NYS Department of Health", "OVERABBREV": "NYSDOH", "OVERLEVEL": "State", "CAPACITY": null, "CAPTYPE": null, "BORO": "MANHATTAN", "BIN": 1006511.0, "BBL": 1004550005.0, "LATITUDE": 40.731875057542389, "LONGITUDE": -73.984599371264707, "XCOORD": 988518.2573509512, "YCOORD": 205918.76988980416, "CD": 103.0, "NTA2010": "MN22", "NTA2020": "MN0303", "COUNCIL": 2.0, "CT2010": 4000.0, "CT2020": 4001.0, "BOROCODE": 1.0, "SCHOOLDIST": 1.0, "POLICEPRCT": 9.0, "DATASOURCE": "nysdoh_healthfacilities", "UID": "1e4f80cb9a8babfd0c822eb2476fd5f5" }, "geometry": { "type": "Point", "coordinates": [ -73.984599371264707, 40.731875057542389 ] } },
{ "type": "Feature", "properties": { "the_geom": null, "FACNAME": "MONTEFIORE MEDICAL CENTER - HENRY & LUCY MOSES DIV", "ADDRESSNUM": "111", "STREETNAME": "EAST 210 STREET", "ADDRESS": "111 EAST 210 STREET", "CITY": "BRONX", "ZIPCODE": 10467.0, "FACTYPE": "HOSPITAL", "FACSUBGRP": "HOSPITALS AND CLINICS", "FACGROUP": "HEALTH CARE", "FACDOMAIN": "HEALTH AND HUMAN SERVICES", "SERVAREA": "Regional", "OPNAME": "Montefiore Medical Center", "OPABBREV": "Non-public", "OPTYPE": "Non-public", "OVERAGENCY": "NYS Department of Health", "OVERABBREV": "NYSDOH", "OVERLEVEL": "State", "CAPACITY": null, "CAPTYPE": null, "BORO": "BRONX", "BIN": 2096399.0, "BBL": 2033270001.0, "LATITUDE": 40.880427754449912, "LONGITUDE": -73.879894607657931, "XCOORD": 1017462.7808710532, "YCOORD": 260064.17404018113, "CD": 207.0, "NTA2010": "BX43", "NTA2020": "BX0703", "COUNCIL": 11.0, "CT2010": 42100.0, "CT2020": 42100.0, "BOROCODE": 2.0, "SCHOOLDIST": 10.0, "POLICEPRCT": 52.0, "DATASOURCE": "nysdoh_healthfacilities", "UID": "28a2bf1e3cef8332ec93be1cf2f2474b" }, "geometry": { "type": "Point", "coordinates": [ -73.879894607657931, 40.880427754449912 ] } },
{ "type": "Feature", "properties": { "the_geom": null, "FACNAME": "JAMAICA HOSPITAL MEDICAL CENTER", "ADDRESSNUM": null, "STREETNAME": null, "ADDRESS": null, "CITY": "RICHMOND HILL", "ZIPCODE": 11418.0, "FACTYPE": "HOSPITAL", "FACSUBGRP": "HOSPITALS AND CLINICS", "FACGROUP": "HEALTH CARE", "FACDOMAIN": "HEALTH AND HUMAN SERVICES", "SERVAREA": "Regional", "OPNAME": "Jamaica Hospital Inc", "OPABBREV": "Non-public", "OPTYPE": "Non-public", "OVERAGENCY": "NYS Department of Health", "OVERABBREV": "NYSDOH", "OVERLEVEL": "State", "CAPACITY": null, "CAPTYPE": null, "BORO": "QUEENS", "BIN": null, "BBL": null, "LATITUDE": 40.701412, "LONGITUDE": -73.816299, "XCOORD": 1035185.6492020356, "YCOORD": 194873.18142079641, "CD": 409.0, "NTA2010": "QN54", "NTA2020": "QN0902", "COUNCIL": 29.0, "CT2010": 14202.0, "CT2020": 14202.0, "BOROCODE": 4.0, "SCHOOLDIST": 28.0, "POLICEPRCT": 102.0, "DATASOURCE": "nysdoh_healthfacilities", "UID": "297cf12892420dff486cf468a84070f1" }, "geometry": { "type": "Point", "coordinates": [ -73.816299, 40.701412 ] } },
{ "type": "Feature", "properties": { "the_geom": null, "FACNAME": "MOUNT SINAI BROOKLYN", "ADDRESSNUM": "3201", "STREETNAME": "KINGS HIGHWAY", "ADDRESS": "3201 KINGS HIGHWAY", "CITY": "BROOKLYN", "ZIPCODE": 11234.0, "FACTYPE": "HOSPITAL", "FACSUBGRP": "HOSPITALS AND CLINICS", "FACGROUP": "HEALTH CARE", "FACDOMAIN": "HEALTH AND HUMAN SERVICES", "SERVAREA": "Regional", "OPNAME": "Beth Israel Medical Center Inc", "OPABBREV": "Non-public", "OPTYPE": "Non-public", "OVERAGENCY": "NYS Department of Health", "OVERABBREV": "NYSDOH", "OVERLEVEL": "State", "CAPACITY": null, "CAPTYPE": null, "BORO": "BROOKLYN", "BIN": 3210431.0, "BBL": 3076680024.0, "LATITUDE": 40.618718687057559, "LONGITUDE": -73.94297316407598, "XCOORD": 1000081.7256076277, "YCOORD": 164697.43721385355, "CD": 318.0, "NTA2010": "BK58", "NTA2020": "BK1801", "COUNCIL": 45.0, "CT2010": 74600.0, "CT2020": 74600.0, "BOROCODE": 3.0, "SCHOOLDIST": 22.0, "POLICEPRCT": 63.0, "DATASOURCE": "nysdoh_healthfacilities", "UID": "2fe180969947782aba008d184d74807e" }, "geometry": { "type": "Point", "coordinates": [ -73.94297316407598, 40.618718687057559 ] } },
{ "type": "Feature", "properties": { "the_geom": null, "FACNAME": "METROPOLITAN HOSPITAL CENTER", "ADDRESSNUM": "1901", "STREETNAME": "FIRST AVENUE", "ADDRESS": "1901 FIRST AVENUE", "CITY": "NEW YORK", "ZIPCODE": 10029.0, "FACTYPE": "ACUTE CARE HOSPITAL", "FACSUBGRP": "HOSPITALS AND CLINICS", "FACGROUP": "HEALTH CARE", "FACDOMAIN": "HEALTH AND HUMAN SERVICES", "SERVAREA": "Regional", "OPNAME": "NYC Health and Hospitals Corporation", "OPABBREV": "NYCHHC", "OPTYPE": "Public", "OVERAGENCY": "NYS Department of Health", "OVERABBREV": "NYSDOH", "OVERLEVEL": "State", "CAPACITY": null, "CAPTYPE": null, "BORO": "MANHATTAN", "BIN": 1083929.0, "BBL": 1016690001.0, "LATITUDE": 40.785078260671938, "LONGITUDE": -73.945025442064463, "XCOORD": 999473.93691261741, "YCOORD": 225306.83712979584, "CD": 111.0, "NTA2010": "MN33", "NTA2020": "MN1101", "COUNCIL": 8.0, "CT2010": 15602.0, "CT2020": 15602.0, "BOROCODE": 1.0, "SCHOOLDIST": 4.0, "POLICEPRCT": 23.0, "DATASOURCE": "hhc_hospitals", "UID": "3593b4e81587d6966af9efe21db86f12" }, "geometry": { "type": "Point", "coordinates": [ -73.945025442064463, 40.785078260671938 ] } },
{ "type": "Feature", "properties": { "the_geom": null, "FACNAME": "MEMORIAL HOSPITAL FOR CANCER AND ALLIED DISEASES", "ADDRESSNUM": "1275", "STREETNAME": "YORK AVENUE", "ADDRESS": "1275 YORK AVENUE", "CITY": "NEW YORK", "ZIPCODE": 10065.0, "FACTYPE": "HOSPITAL", "FACSUBGRP": "HOSPITALS AND CLINICS", "FACGROUP": "HEALTH CARE", "FACDOMAIN": "HEALTH AND HUMAN SERVICES", "SERVAREA": "Regional", "OPNAME": "Memorial Hospital for Cancer and Allied Diseases Inc", "OPABBREV": "Non-public", "OPTYPE": "Non-public", "OVERAGENCY": "NYS Department of Health", "OVERABBREV": "NYSDOH", "OVERLEVEL": "State", "CAPACITY": null, "CAPTYPE": null, "BORO": "MANHATTAN", "BIN": 1087284.0, "BBL": 1014620005.0, "LATITUDE": 40.764395277527818, "LONGITUDE": -73.956852354448699, "XCOORD": 996202.45813707635, "YCOORD": 217769.49914821779, "CD": 108.0, "NTA2010": "MN31", "NTA2020": "MN0801", "COUNCIL": 5.0, "CT2010": 11600.0, "CT2020": 11600.0, "BOROCODE": 1.0, "SCHOOLDIST": 2.0, "POLICEPRCT": 19.0, "DATASOURCE": "nysdoh_healthfacilities", "UID": "366534cac45faf9fafed54f824301c8f" }, "geometry": { "type": "Point", "coordinates": [ -73.956852354448699, 40.764395277527818 ] } },
{ "type": "Feature", "properties": { "the_geom": null, "FACNAME": "NYU LANGONE ORTHOPEDIC HOSPITAL", "ADDRESSNUM": "301", "STREETNAME": "EAST 17 STREET", "ADDRESS": "301 EAST 17 STREET", "CITY": "NEW YORK", "ZIPCODE": 10003.0, "FACTYPE": "HOSPITAL", "FACSUBGRP": "HOSPITALS AND CLINICS", "FACGROUP": "HEALTH CARE", "FACDOMAIN": "HEALTH AND HUMAN SERVICES", "SERVAREA": "Regional", "OPNAME": "NYU Langone Hospitals", "OPABBREV": "Non-public", "OPTYPE": "Non-public", "OVERAGENCY": "NYS Department of Health", "OVERABBREV": "NYSDOH", "OVERLEVEL": "State", "CAPACITY": null, "CAPTYPE": null, "BORO": "MANHATTAN", "BIN": 1020429.0, "BBL": 1009230001.0, "LATITUDE": 40.734389429512376, "LONGITUDE": -73.982971244523284, "XCOORD": 988969.31174636481, "YCOORD": 206834.91792861331, "CD": 106.0, "NTA2010": "MN21", "NTA2020": "MN0602", "COUNCIL": 2.0, "CT2010": 4800.0, "CT2020": 4800.0, "BOROCODE": 1.0, "SCHOOLDIST": 2.0, "POLICEPRCT": 13.0, "DATASOURCE": "nysdoh_healthfacilities", "UID": "376c218934492ebe597ed22fad156614" }, "geometry": { "type": "Point", "coordinates": [ -73.982971244523284, 40.734389429512376 ] } },
{ "type": "Feature", "properties": { "the_geom": null, "FACNAME": "CALVARY HOSPITAL INC", "ADDRESSNUM": "1740", "STREETNAME": "EASTCHESTER ROAD", "ADDRESS": "1740 EASTCHESTER ROAD", "CITY": "BRONX", "ZIPCODE": 10461.0, "FACTYPE": "HOSPITAL", "FACSUBGRP": "HOSPITALS AND CLINICS", "FACGROUP": "HEALTH CARE", "FACDOMAIN": "HEALTH AND HUMAN SERVICES", "SERVAREA": "Regional", "OPNAME": "Calvary Hospital Inc.", "OPABBREV": "Non-public", "OPTYPE": "Non-public", "OVERAGENCY": "NYS Department of Health", "OVERABBREV": "NYSDOH", "OVERLEVEL": "State", "CAPACITY": null, "CAPTYPE": null, "BORO": "BRONX", "BIN": 2047124.0, "BBL": 2042260006.0, "LATITUDE": 40.847930017644643, "LONGITUDE": -73.843916251654321, "XCOORD": 1027432.9745881336, "YCOORD": 248239.68730284873, "CD": 211.0, "NTA2010": "BX37", "NTA2020": "BX1161", "COUNCIL": 13.0, "CT2010": 28400.0, "CT2020": 28400.0, "BOROCODE": 2.0, "SCHOOLDIST": 11.0, "POLICEPRCT": 49.0, "DATASOURCE": "nysdoh_healthfacilities", "UID": "3ae3b7ac16d575591c3cb1beaaf9abf5" }, "geometry": { "type": "Point", "coordinates": [ -73.843916251654321, 40.847930017644643 ] } },
{ "type": "Feature", "properties": { "the_geom": null, "FACNAME": "MOUNT SINAI -  BEHAVIORAL HEALTH CENTER", "ADDRESSNUM": "45", "STREETNAME": "RIVINGTON STREET", "ADDRESS": "45 RIVINGTON STREET", "CITY": "NEW YORK", "ZIPCODE": 10002.0, "FACTYPE": "HOSPITAL", "FACSUBGRP": "HOSPITALS AND CLINICS", "FACGROUP": "HEALTH CARE", "FACDOMAIN": "HEALTH AND HUMAN SERVICES", "SERVAREA": "Regional", "OPNAME": "Beth Israel Medical Center Inc", "OPABBREV": "Non-public", "OPTYPE": "Non-public", "OVERAGENCY": "NYS Department of Health", "OVERABBREV": "NYSDOH", "OVERLEVEL": "State", "CAPACITY": null, "CAPTYPE": null, "BORO": "MANHATTAN", "BIN": 1005601.0, "BBL": 1004207502.0, "LATITUDE": 40.720680151807024, "LONGITUDE": -73.99119730089437, "XCOORD": 986690.06255449122, "YCOORD": 201839.8660153168, "CD": 103.0, "NTA2010": "MN27", "NTA2020": "MN0302", "COUNCIL": 1.0, "CT2010": 1800.0, "CT2020": 1800.0, "BOROCODE": 1.0, "SCHOOLDIST": 1.0, "POLICEPRCT": 5.0, "DATASOURCE": "nysdoh_healthfacilities", "UID": "3b8ace6f56cbfd1619300d267522fd60" }, "geometry": { "type": "Point", "coordinates": [ -73.99119730089437, 40.720680151807024 ] } },
{ "type": "Feature", "properties": { "the_geom": null, "FACNAME": "SBH HEALTH SYSTEM", "ADDRESSNUM": "4422", "STREETNAME": "THIRD AVENUE", "ADDRESS": "4422 THIRD AVENUE", "CITY": "BRONX", "ZIPCODE": 10457.0, "FACTYPE": "HOSPITAL", "FACSUBGRP": "HOSPITALS AND CLINICS", "FACGROUP": "HEALTH CARE", "FACDOMAIN": "HEALTH AND HUMAN SERVICES", "SERVAREA": "Regional", "OPNAME": "St Barnabas Hospital Inc", "OPABBREV": "Non-public", "OPTYPE": "Non-public", "OVERAGENCY": "NYS Department of Health", "OVERABBREV": "NYSDOH", "OVERLEVEL": "State", "CAPACITY": null, "CAPTYPE": null, "BORO": "BRONX", "BIN": 2094217.0, "BBL": 2030640001.0, "LATITUDE": 40.853361734366175, "LONGITUDE": -73.890845303375215, "XCOORD": 1014446.8713072567, "YCOORD": 250199.00997522401, "CD": 206.0, "NTA2010": "BX17", "NTA2020": "BX0602", "COUNCIL": 15.0, "CT2010": 37504.0, "CT2020": 37504.0, "BOROCODE": 2.0, "SCHOOLDIST": 10.0, "POLICEPRCT": 48.0, "DATASOURCE": "nysdoh_healthfacilities", "UID": "3f7ab1a0de2506ecd3241bf105c835cc" }, "geometry": { "type": "Point", "coordinates": [ -73.890845303375215, 40.853361734366175 ] } },
{ "type": "Feature", "properties": { "the_geom": null, "FACNAME": "CONEY ISLAND HOSPITAL", "ADDRESSNUM": "2601", "STREETNAME": "OCEAN PARKWAY", "ADDRESS": "2601 OCEAN PARKWAY", "CITY": "BROOKLYN", "ZIPCODE": 11235.0, "FACTYPE": "ACUTE CARE HOSPITAL", "FACSUBGRP": "HOSPITALS AND CLINICS", "FACGROUP": "HEALTH CARE", "FACDOMAIN": "HEALTH AND HUMAN SERVICES", "SERVAREA": "Regional", "OPNAME": "NYC Health and Hospitals Corporation", "OPABBREV": "NYCHHC", "OPTYPE": "Public", "OVERAGENCY": "NYS Department of Health", "OVERABBREV": "NYSDOH", "OVERLEVEL": "State", "CAPACITY": null, "CAPTYPE": null, "BORO": "BROOKLYN", "BIN": 3337274.0, "BBL": 3072390001.0, "LATITUDE": 40.586079591772815, "LONGITUDE": -73.965598822788479, "XCOORD": 993805.086223174, "YCOORD": 152802.89859963069, "CD": 313.0, "NTA2010": "BK19", "NTA2020": "BK1301", "COUNCIL": 48.0, "CT2010": 37000.0, "CT2020": 37000.0, "BOROCODE": 3.0, "SCHOOLDIST": 21.0, "POLICEPRCT": 60.0, "DATASOURCE": "hhc_hospitals", "UID": "43f617c5a96e402d5ae36d000ea067fe" }, "geometry": { "type": "Point", "coordinates": [ -73.965598822788479, 40.586079591772815 ] } },
{ "type": "Feature", "properties": { "the_geom": null, "FACNAME": "MOUNT SINAI WEST", "ADDRESSNUM": "1000", "STREETNAME": "10 AVENUE", "ADDRESS": "1000 10 AVENUE", "CITY": "NEW YORK", "ZIPCODE": 10019.0, "FACTYPE": "HOSPITAL", "FACSUBGRP": "HOSPITALS AND CLINICS", "FACGROUP": "HEALTH CARE", "FACDOMAIN": "HEALTH AND HUMAN SERVICES", "SERVAREA": "Regional", "OPNAME": "St Lukes Roosevelt Hospital Center Inc", "OPABBREV": "Non-public", "OPTYPE": "Non-public", "OVERAGENCY": "NYS Department of Health", "OVERABBREV": "NYSDOH", "OVERLEVEL": "State", "CAPACITY": null, "CAPTYPE": null, "BORO": "MANHATTAN", "BIN": 1082718.0, "BBL": 1010680001.0, "LATITUDE": 40.769663991235632, "LONGITUDE": -73.986799336542234, "XCOORD": 987906.46606338758, "YCOORD": 219686.39786383451, "CD": 104.0, "NTA2010": "MN14", "NTA2020": "MN0701", "COUNCIL": 3.0, "CT2010": 14500.0, "CT2020": 14500.0, "BOROCODE": 1.0, "SCHOOLDIST": 2.0, "POLICEPRCT": 18.0, "DATASOURCE": "nysdoh_healthfacilities", "UID": "44fb1c33fb58966df0461b38a5272d53" }, "geometry": { "type": "Point", "coordinates": [ -73.986799336542234, 40.769663991235632 ] } },
{ "type": "Feature", "properties": { "the_geom": null, "FACNAME": "CALVARY HOSPITAL", "ADDRESSNUM": "150", "STREETNAME": "55 STREET", "ADDRESS": "150 55 STREET", "CITY": "BROOKLYN", "ZIPCODE": 11220.0, "FACTYPE": "HOSPITAL", "FACSUBGRP": "HOSPITALS AND CLINICS", "FACGROUP": "HEALTH CARE", "FACDOMAIN": "HEALTH AND HUMAN SERVICES", "SERVAREA": "Regional", "OPNAME": "Calvary Hospital Inc.", "OPABBREV": "Non-public", "OPTYPE": "Non-public", "OVERAGENCY": "NYS Department of Health", "OVERABBREV": "NYSDOH", "OVERLEVEL": "State", "CAPACITY": null, "CAPTYPE": null, "BORO": "BROOKLYN", "BIN": 3014856.0, "BBL": 3008280001.0, "LATITUDE": 40.646543849083457, "LONGITUDE": -74.02108633750089, "XCOORD": 978398.47478577343, "YCOORD": 174830.44167127248, "CD": 307.0, "NTA2010": "BK32", "NTA2020": "BK0702", "COUNCIL": 38.0, "CT2010": 2200.0, "CT2020": 2200.0, "BOROCODE": 3.0, "SCHOOLDIST": 20.0, "POLICEPRCT": 72.0, "DATASOURCE": "nysdoh_healthfacilities", "UID": "4621b7758fb1daa64f243cb0784c2cf0" }, "geometry": { "type": "Point", "coordinates": [ -74.02108633750089, 40.646543849083457 ] } },
{ "type": "Feature", "properties": { "the_geom": null, "FACNAME": "KINGS COUNTY HOSPITAL CENTER", "ADDRESSNUM": "451", "STREETNAME": "CLARKSON AVENUE", "ADDRESS": "451 CLARKSON AVENUE", "CITY": "BROOKLYN", "ZIPCODE": 11203.0, "FACTYPE": "HOSPITAL", "FACSUBGRP": "HOSPITALS AND CLINICS", "FACGROUP": "HEALTH CARE", "FACDOMAIN": "HEALTH AND HUMAN SERVICES", "SERVAREA": "Regional", "OPNAME": "NYC Health and Hospitals Corporation", "OPABBREV": "Non-public", "OPTYPE": "Non-public", "OVERAGENCY": "NYS Department of Health", "OVERABBREV": "NYSDOH", "OVERLEVEL": "State", "CAPACITY": null, "CAPTYPE": null, "BORO": "BROOKLYN", "BIN": 3327711.0, "BBL": 3048290001.0, "LATITUDE": 40.656637763530981, "LONGITUDE": -73.944933328265009, "XCOORD": 999528.86256283917, "YCOORD": 178512.03148906492, "CD": 309.0, "NTA2010": "BK60", "NTA2020": "BK0902", "COUNCIL": 40.0, "CT2010": 80800.0, "CT2020": 80800.0, "BOROCODE": 3.0, "SCHOOLDIST": 18.0, "POLICEPRCT": 71.0, "DATASOURCE": "nysdoh_healthfacilities", "UID": "47005f3b7115b10d6755307ba1f36c8d" }, "geometry": { "type": "Point", "coordinates": [ -73.944933328265009, 40.656637763530981 ] } },
{ "type": "Feature", "properties": { "the_geom": null, "FACNAME": "METROPOLITAN HOSPITAL CENTER", "ADDRESSNUM": "1901", "STREETNAME": "FIRST AVENUE", "ADDRESS": "1901 FIRST AVENUE", "CITY": "NEW YORK", "ZIPCODE": 10029.0, "FACTYPE": "HOSPITAL", "FACSUBGRP": "HOSPITALS AND CLINICS", "FACGROUP": "HEALTH CARE", "FACDOMAIN": "HEALTH AND HUMAN SERVICES", "SERVAREA": "Regional", "OPNAME": "NYC Health and Hospitals Corporation", "OPABBREV": "Non-public", "OPTYPE": "Non-public", "OVERAGENCY": "NYS Department of Health", "OVERABBREV": "NYSDOH", "OVERLEVEL": "State", "CAPACITY": null, "CAPTYPE": null, "BORO": "MANHATTAN", "BIN": 1083929.0, "BBL": 1016690001.0, "LATITUDE": 40.785078260671938, "LONGITUDE": -73.945025442064463, "XCOORD": 999473.93691261741, "YCOORD": 225306.83712979584, "CD": 111.0, "NTA2010": "MN33", "NTA2020": "MN1101", "COUNCIL": 8.0, "CT2010": 15602.0, "CT2020": 15602.0, "BOROCODE": 1.0, "SCHOOLDIST": 4.0, "POLICEPRCT": 23.0, "DATASOURCE": "nysdoh_healthfacilities", "UID": "477c07eff3b90b8f981389c93708d976" }, "geometry": { "type": "Point", "coordinates": [ -73.945025442064463, 40.785078260671938 ] } },
{ "type": "Feature", "properties": { "the_geom": null, "FACNAME": "JACOBI MEDICAL CENTER", "ADDRESSNUM": "1400", "STREETNAME": "PELHAM PARKWAY", "ADDRESS": "1400 PELHAM PARKWAY", "CITY": "BRONX", "ZIPCODE": 10461.0, "FACTYPE": "HOSPITAL", "FACSUBGRP": "HOSPITALS AND CLINICS", "FACGROUP": "HEALTH CARE", "FACDOMAIN": "HEALTH AND HUMAN SERVICES", "SERVAREA": "Regional", "OPNAME": "NYC Health and Hospitals Corporation", "OPABBREV": "Non-public", "OPTYPE": "Non-public", "OVERAGENCY": "NYS Department of Health", "OVERABBREV": "NYSDOH", "OVERLEVEL": "State", "CAPACITY": null, "CAPTYPE": null, "BORO": "BRONX", "BIN": 2097550.0, "BBL": 2042050001.0, "LATITUDE": 40.856478461483441, "LONGITUDE": -73.847547739535941, "XCOORD": 1026422.848077254, "YCOORD": 251352.43728664165, "CD": 211.0, "NTA2010": "BX49", "NTA2020": "BX1102", "COUNCIL": 13.0, "CT2010": 29600.0, "CT2020": 29600.0, "BOROCODE": 2.0, "SCHOOLDIST": 11.0, "POLICEPRCT": 49.0, "DATASOURCE": "nysdoh_healthfacilities", "UID": "4b7e554969ec5fe2a40979573494fcd0" }, "geometry": { "type": "Point", "coordinates": [ -73.847547739535941, 40.856478461483441 ] } },
{ "type": "Feature", "properties": { "the_geom": null, "FACNAME": "MONTEFIORE MED CENTER - JACK D WEILER HOSP OF A EINSTEIN COLLEGE DIV", "ADDRESSNUM": "1825", "STREETNAME": "EASTCHESTER ROAD", "ADDRESS": "1825 EASTCHESTER ROAD", "CITY": "BRONX", "ZIPCODE": 10461.0, "FACTYPE": "HOSPITAL", "FACSUBGRP": "HOSPITALS AND CLINICS", "FACGROUP": "HEALTH CARE", "FACDOMAIN": "HEALTH AND HUMAN SERVICES", "SERVAREA": "Regional", "OPNAME": "Montefiore Medical Center", "OPABBREV": "Non-public", "OPTYPE": "Non-public", "OVERAGENCY": "NYS Department of Health", "OVERABBREV": "NYSDOH", "OVERLEVEL": "State", "CAPACITY": null, "CAPTYPE": null, "BORO": "BRONX", "BIN": 2097361.0, "BBL": 2041170001.0, "LATITUDE": 40.849788303644871, "LONGITUDE": -73.845868960356256, "XCOORD": 1026891.5369039768, "YCOORD": 248915.77370898816, "CD": 211.0, "NTA2010": "BX37", "NTA2020": "BX1102", "COUNCIL": 13.0, "CT2010": 28600.0, "CT2020": 28600.0, "BOROCODE": 2.0, "SCHOOLDIST": 11.0, "POLICEPRCT": 49.0, "DATASOURCE": "nysdoh_healthfacilities", "UID": "534efb625257b404b972a1ec1f1de448" }, "geometry": { "type": "Point", "coordinates": [ -73.845868960356256, 40.849788303644871 ] } },
{ "type": "Feature", "properties": { "the_geom": null, "FACNAME": "BRONXCARE HOSPITAL CENTER", "ADDRESSNUM": "1276", "STREETNAME": "FULTON AVENUE", "ADDRESS": "1276 FULTON AVENUE", "CITY": "BRONX", "ZIPCODE": 10456.0, "FACTYPE": "HOSPITAL", "FACSUBGRP": "HOSPITALS AND CLINICS", "FACGROUP": "HEALTH CARE", "FACDOMAIN": "HEALTH AND HUMAN SERVICES", "SERVAREA": "Regional", "OPNAME": "BronxCare Health System", "OPABBREV": "Non-public", "OPTYPE": "Non-public", "OVERAGENCY": "NYS Department of Health", "OVERABBREV": "NYSDOH", "OVERLEVEL": "State", "CAPACITY": null, "CAPTYPE": null, "BORO": "BRONX", "BIN": 2004246.0, "BBL": 2026120007.0, "LATITUDE": 40.8314063787385, "LONGITUDE": -73.903219044577654, "XCOORD": 1011032.6029902868, "YCOORD": 242195.83130373963, "CD": 203.0, "NTA2010": "BX35", "NTA2020": "BX0301", "COUNCIL": 16.0, "CT2010": 14900.0, "CT2020": 14900.0, "BOROCODE": 2.0, "SCHOOLDIST": 9.0, "POLICEPRCT": 42.0, "DATASOURCE": "nysdoh_healthfacilities", "UID": "610f6d227ec257b5d54355a96d74fedf" }, "geometry": { "type": "Point", "coordinates": [ -73.903219044577654, 40.8314063787385 ] } },
{ "type": "Feature", "properties": { "the_geom": null, "FACNAME": "BRONXCARE HOSPITAL CENTER", "ADDRESSNUM": "1650", "STREETNAME": "GRAND CONCOURSE", "ADDRESS": "1650 GRAND CONCOURSE", "CITY": "BRONX", "ZIPCODE": 10457.0, "FACTYPE": "HOSPITAL", "FACSUBGRP": "HOSPITALS AND CLINICS", "FACGROUP": "HEALTH CARE", "FACDOMAIN": "HEALTH AND HUMAN SERVICES", "SERVAREA": "Regional", "OPNAME": "BronxCare Health System", "OPABBREV": "Non-public", "OPTYPE": "Non-public", "OVERAGENCY": "NYS Department of Health", "OVERABBREV": "NYSDOH", "OVERLEVEL": "State", "CAPACITY": null, "CAPTYPE": null, "BORO": "BRONX", "BIN": 2007859.0, "BBL": 2028230001.0, "LATITUDE": 40.843476965869563, "LONGITUDE": -73.911033566780489, "XCOORD": 1008865.5914937448, "YCOORD": 246591.30026345761, "CD": 204.0, "NTA2010": "BX41", "NTA2020": "BX0403", "COUNCIL": 16.0, "CT2010": 22703.0, "CT2020": 22703.0, "BOROCODE": 2.0, "SCHOOLDIST": 9.0, "POLICEPRCT": 44.0, "DATASOURCE": "nysdoh_healthfacilities", "UID": "64e3e72fc77d91b81dc5b5653a4c79a1" }, "geometry": { "type": "Point", "coordinates": [ -73.911033566780489, 40.843476965869563 ] } },
{ "type": "Feature", "properties": { "the_geom": null, "FACNAME": "HARLEM HOSPITAL CENTER", "ADDRESSNUM": "506", "STREETNAME": "LENOX AVENUE", "ADDRESS": "506 LENOX AVENUE", "CITY": "NEW YORK", "ZIPCODE": 10037.0, "FACTYPE": "HOSPITAL", "FACSUBGRP": "HOSPITALS AND CLINICS", "FACGROUP": "HEALTH CARE", "FACDOMAIN": "HEALTH AND HUMAN SERVICES", "SERVAREA": "Regional", "OPNAME": "NYC Health and Hospitals Corporation", "OPABBREV": "Non-public", "OPTYPE": "Non-public", "OVERAGENCY": "NYS Department of Health", "OVERABBREV": "NYSDOH", "OVERLEVEL": "State", "CAPACITY": null, "CAPTYPE": null, "BORO": "MANHATTAN", "BIN": 1053899.0, "BBL": 1017340001.0, "LATITUDE": 40.814111949013245, "LONGITUDE": -73.939744455600348, "XCOORD": 1000929.1079070496, "YCOORD": 235885.78382911719, "CD": 110.0, "NTA2010": "MN03", "NTA2020": "MN1002", "COUNCIL": 9.0, "CT2010": 21200.0, "CT2020": 21200.0, "BOROCODE": 1.0, "SCHOOLDIST": 5.0, "POLICEPRCT": 32.0, "DATASOURCE": "nysdoh_healthfacilities", "UID": "66fd9b1d1cae6f8a4a13f8237ef15cce" }, "geometry": { "type": "Point", "coordinates": [ -73.939744455600348, 40.814111949013245 ] } },
{ "type": "Feature", "properties": { "the_geom": null, "FACNAME": "NYU LANGONE HOSPITAL-BROOKLYN", "ADDRESSNUM": "150", "STREETNAME": "55 STREET", "ADDRESS": "150 55 STREET", "CITY": "BROOKLYN", "ZIPCODE": 11220.0, "FACTYPE": "HOSPITAL", "FACSUBGRP": "HOSPITALS AND CLINICS", "FACGROUP": "HEALTH CARE", "FACDOMAIN": "HEALTH AND HUMAN SERVICES", "SERVAREA": "Regional", "OPNAME": "NYU Langone Hospitals", "OPABBREV": "Non-public", "OPTYPE": "Non-public", "OVERAGENCY": "NYS Department of Health", "OVERABBREV": "NYSDOH", "OVERLEVEL": "State", "CAPACITY": null, "CAPTYPE": null, "BORO": "BROOKLYN", "BIN": 3014856.0, "BBL": 3008280001.0, "LATITUDE": 40.646543849083457, "LONGITUDE": -74.02108633750089, "XCOORD": 978398.47478577343, "YCOORD": 174830.44167127248, "CD": 307.0, "NTA2010": "BK32", "NTA2020": "BK0702", "COUNCIL": 38.0, "CT2010": 2200.0, "CT2020": 2200.0, "BOROCODE": 3.0, "SCHOOLDIST": 20.0, "POLICEPRCT": 72.0, "DATASOURCE": "nysdoh_healthfacilities", "UID": "67cdabbcfe6113f4639d8c3c7f1807a8" }, "geometry": { "type": "Point", "coordinates": [ -74.02108633750089, 40.646543849083457 ] } },
{ "type": "Feature", "properties": { "the_geom": null, "FACNAME": "STATEN ISLAND UNIVERSITY HOSPITAL PRINCE'S BAY", "ADDRESSNUM": "375", "STREETNAME": "SEGUINE AVENUE", "ADDRESS": "375 SEGUINE AVENUE", "CITY": "STATEN ISLAND", "ZIPCODE": 10309.0, "FACTYPE": "HOSPITAL", "FACSUBGRP": "HOSPITALS AND CLINICS", "FACGROUP": "HEALTH CARE", "FACDOMAIN": "HEALTH AND HUMAN SERVICES", "SERVAREA": "Regional", "OPNAME": "Staten Island University Hospital", "OPABBREV": "Non-public", "OPTYPE": "Non-public", "OVERAGENCY": "NYS Department of Health", "OVERABBREV": "NYSDOH", "OVERLEVEL": "State", "CAPACITY": null, "CAPTYPE": null, "BORO": "STATEN ISLAND", "BIN": 5082757.0, "BBL": 5066700001.0, "LATITUDE": 40.51684177454684, "LONGITUDE": -74.196282945267413, "XCOORD": 929675.02480800962, "YCOORD": 127637.16548368016, "CD": 503.0, "NTA2010": "SI01", "NTA2020": "SI0304", "COUNCIL": 51.0, "CT2010": 19800.0, "CT2020": 19800.0, "BOROCODE": 5.0, "SCHOOLDIST": 31.0, "POLICEPRCT": 123.0, "DATASOURCE": "nysdoh_healthfacilities", "UID": "67eb156432f0a329ec40d7a3cc9291dd" }, "geometry": { "type": "Point", "coordinates": [ -74.196282945267413, 40.51684177454684 ] } },
{ "type": "Feature", "properties": { "the_geom": null, "FACNAME": "SOUTH BROOKLYN HEALTH", "ADDRESSNUM": "2601", "STREETNAME": "OCEAN PARKWAY", "ADDRESS": "2601 OCEAN PARKWAY", "CITY": "BROOKLYN", "ZIPCODE": 11235.0, "FACTYPE": "HOSPITAL", "FACSUBGRP": "HOSPITALS AND CLINICS", "FACGROUP": "HEALTH CARE", "FACDOMAIN": "HEALTH AND HUMAN SERVICES", "SERVAREA": "Regional", "OPNAME": "NYC Health and Hospitals Corporation", "OPABBREV": "Non-public", "OPTYPE": "Non-public", "OVERAGENCY": "NYS Department of Health", "OVERABBREV": "NYSDOH", "OVERLEVEL": "State", "CAPACITY": null, "CAPTYPE": null, "BORO": "BROOKLYN", "BIN": 3337274.0, "BBL": 3072390001.0, "LATITUDE": 40.586079591772815, "LONGITUDE": -73.965598822788479, "XCOORD": 993805.086223174, "YCOORD": 152802.89859963069, "CD": 313.0, "NTA2010": "BK19", "NTA2020": "BK1301", "COUNCIL": 48.0, "CT2010": 37000.0, "CT2020": 37000.0, "BOROCODE": 3.0, "SCHOOLDIST": 21.0, "POLICEPRCT": 60.0, "DATASOURCE": "nysdoh_healthfacilities", "UID": "727c880fdc602a54126580501c2305a5" }, "geometry": { "type": "Point", "coordinates": [ -73.965598822788479, 40.586079591772815 ] } },
{ "type": "Feature", "properties": { "the_geom": null, "FACNAME": "NORTH CENTRAL BRONX HOSPITAL", "ADDRESSNUM": null, "STREETNAME": null, "ADDRESS": null, "CITY": "BRONX", "ZIPCODE": 10467.0, "FACTYPE": "HOSPITAL", "FACSUBGRP": "HOSPITALS AND CLINICS", "FACGROUP": "HEALTH CARE", "FACDOMAIN": "HEALTH AND HUMAN SERVICES", "SERVAREA": "Regional", "OPNAME": "NYC Health and Hospitals Corporation", "OPABBREV": "Non-public", "OPTYPE": "Non-public", "OVERAGENCY": "NYS Department of Health", "OVERABBREV": "NYSDOH", "OVERLEVEL": "State", "CAPACITY": null, "CAPTYPE": null, "BORO": "BRONX", "BIN": null, "BBL": null, "LATITUDE": 40.880512, "LONGITUDE": -73.881538, "XCOORD": 1017008.2918541264, "YCOORD": 260094.24919919769, "CD": 207.0, "NTA2010": "BX43", "NTA2020": "BX0703", "COUNCIL": 11.0, "CT2010": 42100.0, "CT2020": 42100.0, "BOROCODE": 2.0, "SCHOOLDIST": 10.0, "POLICEPRCT": 52.0, "DATASOURCE": "nysdoh_healthfacilities", "UID": "728f676a523157d6595a8363e027d0fe" }, "geometry": { "type": "Point", "coordinates": [ -73.881538, 40.880512 ] } },
{ "type": "Feature", "properties": { "the_geom": null, "FACNAME": "WOODHULL MEDICAL & MENTAL HEALTH CENTER", "ADDRESSNUM": "760", "STREETNAME": "BROADWAY", "ADDRESS": "760 BROADWAY", "CITY": "BROOKLYN", "ZIPCODE": 11206.0, "FACTYPE": "HOSPITAL", "FACSUBGRP": "HOSPITALS AND CLINICS", "FACGROUP": "HEALTH CARE", "FACDOMAIN": "HEALTH AND HUMAN SERVICES", "SERVAREA": "Regional", "OPNAME": "NYC Health and Hospitals Corporation", "OPABBREV": "Non-public", "OPTYPE": "Non-public", "OVERAGENCY": "NYS Department of Health", "OVERABBREV": "NYSDOH", "OVERLEVEL": "State", "CAPACITY": null, "CAPTYPE": null, "BORO": "BROOKLYN", "BIN": 3048341.0, "BBL": 3017230001.0, "LATITUDE": 40.699576232607775, "LONGITUDE": -73.942388058746062, "XCOORD": 1000224.7871560795, "YCOORD": 194156.20112176193, "CD": 303.0, "NTA2010": "BK78", "NTA2020": "BK0302", "COUNCIL": 36.0, "CT2010": 28501.0, "CT2020": 28501.0, "BOROCODE": 3.0, "SCHOOLDIST": 14.0, "POLICEPRCT": 81.0, "DATASOURCE": "nysdoh_healthfacilities", "UID": "737404c8395a96d36ed729a9b9ec7251" }, "geometry": { "type": "Point", "coordinates": [ -73.942388058746062, 40.699576232607775 ] } },
{ "type": "Feature", "properties": { "the_geom": null, "FACNAME": "FLUSHING HOSPITAL MEDICAL CENTER", "ADDRESSNUM": null, "STREETNAME": null, "ADDRESS": null, "CITY": "FLUSHING", "ZIPCODE": 11355.0, "FACTYPE": "HOSPITAL", "FACSUBGRP": "HOSPITALS AND CLINICS", "FACGROUP": "HEALTH CARE", "FACDOMAIN": "HEALTH AND HUMAN SERVICES", "SERVAREA": "Regional", "OPNAME": "Flushing Hospital and Medical Center Inc", "OPABBREV": "Non-public", "OPTYPE": "Non-public", "OVERAGENCY": "NYS Department of Health", "OVERABBREV": "NYSDOH", "OVERLEVEL": "State", "CAPACITY": null, "CAPTYPE": null, "BORO": "QUEENS", "BIN": null, "BBL": null, "LATITUDE": 40.755531, "LONGITUDE": -73.815475, "XCOORD": 1035372.5886098904, "YCOORD": 214590.85421932244, "CD": 407.0, "NTA2010": "QN52", "NTA2020": "QN0705", "COUNCIL": 20.0, "CT2010": 86100.0, "CT2020": 86100.0, "BOROCODE": 4.0, "SCHOOLDIST": 25.0, "POLICEPRCT": 109.0, "DATASOURCE": "nysdoh_healthfacilities", "UID": "76085d700f6dfb8996b6147cf889867a" }, "geometry": { "type": "Point", "coordinates": [ -73.815475, 40.755531 ] } },
{ "type": "Feature", "properties": { "the_geom": null, "FACNAME": "NORTH CENTRAL BRONX HOSPITAL", "ADDRESSNUM": "3424", "STREETNAME": "KOSSUTH AVENUE", "ADDRESS": "3424 KOSSUTH AVENUE", "CITY": "BRONX", "ZIPCODE": 10467.0, "FACTYPE": "ACUTE CARE HOSPITAL", "FACSUBGRP": "HOSPITALS AND CLINICS", "FACGROUP": "HEALTH CARE", "FACDOMAIN": "HEALTH AND HUMAN SERVICES", "SERVAREA": "Regional", "OPNAME": "NYC Health and Hospitals Corporation", "OPABBREV": "NYCHHC", "OPTYPE": "Public", "OVERAGENCY": "NYS Department of Health", "OVERABBREV": "NYSDOH", "OVERLEVEL": "State", "CAPACITY": null, "CAPTYPE": null, "BORO": "BRONX", "BIN": 2017787.0, "BBL": 2033270200.0, "LATITUDE": 40.880459937101449, "LONGITUDE": -73.881092751988092, "XCOORD": 1017131.4419411288, "YCOORD": 260075.44744136199, "CD": 207.0, "NTA2010": "BX43", "NTA2020": "BX0703", "COUNCIL": 11.0, "CT2010": 42100.0, "CT2020": 42100.0, "BOROCODE": 2.0, "SCHOOLDIST": 10.0, "POLICEPRCT": 52.0, "DATASOURCE": "hhc_hospitals", "UID": "7cbc3a4e9f96c716cedc0888f5f11619" }, "geometry": { "type": "Point", "coordinates": [ -73.881092751988092, 40.880459937101449 ] } },
{ "type": "Feature", "properties": { "the_geom": null, "FACNAME": "ST JOHNS EPISCOPAL HOSPITAL SO SHORE", "ADDRESSNUM": "327", "STREETNAME": "BEACH 19 STREET", "ADDRESS": "327 BEACH 19 STREET", "CITY": "FAR ROCKAWAY", "ZIPCODE": 11691.0, "FACTYPE": "HOSPITAL", "FACSUBGRP": "HOSPITALS AND CLINICS", "FACGROUP": "HEALTH CARE", "FACDOMAIN": "HEALTH AND HUMAN SERVICES", "SERVAREA": "Regional", "OPNAME": "Episcopal Health Services Inc", "OPABBREV": "Non-public", "OPTYPE": "Non-public", "OVERAGENCY": "NYS Department of Health", "OVERABBREV": "NYSDOH", "OVERLEVEL": "State", "CAPACITY": null, "CAPTYPE": null, "BORO": "QUEENS", "BIN": 4430537.0, "BBL": 4156360001.0, "LATITUDE": 40.598572894659135, "LONGITUDE": -73.753467102859545, "XCOORD": 1052712.7547706531, "YCOORD": 157448.98984851272, "CD": 414.0, "NTA2010": "QN15", "NTA2020": "QN1401", "COUNCIL": 31.0, "CT2010": 99801.0, "CT2020": 99801.0, "BOROCODE": 4.0, "SCHOOLDIST": 27.0, "POLICEPRCT": 101.0, "DATASOURCE": "nysdoh_healthfacilities", "UID": "7f7a20ad831162521605d2ec125c7b75" }, "geometry": { "type": "Point", "coordinates": [ -73.753467102859545, 40.598572894659135 ] } },
{ "type": "Feature", "properties": { "the_geom": null, "FACNAME": "NYU LANGONE HOSPITALS", "ADDRESSNUM": "550", "STREETNAME": "FIRST AVENUE", "ADDRESS": "550 FIRST AVENUE", "CITY": "NEW YORK", "ZIPCODE": 10016.0, "FACTYPE": "HOSPITAL", "FACSUBGRP": "HOSPITALS AND CLINICS", "FACGROUP": "HEALTH CARE", "FACDOMAIN": "HEALTH AND HUMAN SERVICES", "SERVAREA": "Regional", "OPNAME": "NYU Langone Hospitals", "OPABBREV": "Non-public", "OPTYPE": "Non-public", "OVERAGENCY": "NYS Department of Health", "OVERABBREV": "NYSDOH", "OVERLEVEL": "State", "CAPACITY": null, "CAPTYPE": null, "BORO": "MANHATTAN", "BIN": 1085588.0, "BBL": 1009627501.0, "LATITUDE": 40.741471224103151, "LONGITUDE": -73.973621791105174, "XCOORD": 991559.62163415644, "YCOORD": 209415.68128792377, "CD": 106.0, "NTA2010": "MN20", "NTA2020": "MN0603", "COUNCIL": 4.0, "CT2010": 6200.0, "CT2020": 6200.0, "BOROCODE": 1.0, "SCHOOLDIST": 2.0, "POLICEPRCT": 17.0, "DATASOURCE": "nysdoh_healthfacilities", "UID": "82aa2ca9e12fa3088f2f84076da79276" }, "geometry": { "type": "Point", "coordinates": [ -73.973621791105174, 40.741471224103151 ] } },
{ "type": "Feature", "properties": { "the_geom": null, "FACNAME": "MAIMONIDES MIDWOOD COMMUNITY HOSPITAL", "ADDRESSNUM": "2525", "STREETNAME": "KINGS HIGHWAY", "ADDRESS": "2525 KINGS HIGHWAY", "CITY": "BROOKLYN", "ZIPCODE": 11229.0, "FACTYPE": "HOSPITAL", "FACSUBGRP": "HOSPITALS AND CLINICS", "FACGROUP": "HEALTH CARE", "FACDOMAIN": "HEALTH AND HUMAN SERVICES", "SERVAREA": "Regional", "OPNAME": "The New York Community Hospital of Brooklyn, Inc.", "OPABBREV": "Non-public", "OPTYPE": "Non-public", "OVERAGENCY": "NYS Department of Health", "OVERABBREV": "NYSDOH", "OVERLEVEL": "State", "CAPACITY": null, "CAPTYPE": null, "BORO": "BROOKLYN", "BIN": 3182231.0, "BBL": 3067720004.0, "LATITUDE": 40.613918355793217, "LONGITUDE": -73.948494211266308, "XCOORD": 998550.00724282255, "YCOORD": 162947.6014609446, "CD": 314.0, "NTA2010": "BK44", "NTA2020": "BK1502", "COUNCIL": 48.0, "CT2010": 64200.0, "CT2020": 64200.0, "BOROCODE": 3.0, "SCHOOLDIST": 22.0, "POLICEPRCT": 70.0, "DATASOURCE": "nysdoh_healthfacilities", "UID": "82fd6376320f4c013c9e002705aae035" }, "geometry": { "type": "Point", "coordinates": [ -73.948494211266308, 40.613918355793217 ] } },
{ "type": "Feature", "properties": { "the_geom": null, "FACNAME": "LENOX HILL HOSPITAL", "ADDRESSNUM": "100", "STREETNAME": "EAST 77 STREET", "ADDRESS": "100 EAST 77 STREET", "CITY": "NEW YORK", "ZIPCODE": 10075.0, "FACTYPE": "HOSPITAL", "FACSUBGRP": "HOSPITALS AND CLINICS", "FACGROUP": "HEALTH CARE", "FACDOMAIN": "HEALTH AND HUMAN SERVICES", "SERVAREA": "Regional", "OPNAME": "Lenox Hill Hospital", "OPABBREV": "Non-public", "OPTYPE": "Non-public", "OVERAGENCY": "NYS Department of Health", "OVERABBREV": "NYSDOH", "OVERLEVEL": "State", "CAPACITY": null, "CAPTYPE": null, "BORO": "MANHATTAN", "BIN": 1082185.0, "BBL": 1014110001.0, "LATITUDE": 40.773957118687335, "LONGITUDE": -73.961108802104491, "XCOORD": 995021.82026072405, "YCOORD": 221252.64321716299, "CD": 108.0, "NTA2010": "MN40", "NTA2020": "MN0802", "COUNCIL": 4.0, "CT2010": 12800.0, "CT2020": 12800.0, "BOROCODE": 1.0, "SCHOOLDIST": 2.0, "POLICEPRCT": 19.0, "DATASOURCE": "nysdoh_healthfacilities", "UID": "84750a68978ecdfae938d37c70c355f8" }, "geometry": { "type": "Point", "coordinates": [ -73.961108802104491, 40.773957118687335 ] } },
{ "type": "Feature", "properties": { "the_geom": null, "FACNAME": "LONG ISLAND JEWISH FOREST HILLS", "ADDRESSNUM": "102-01", "STREETNAME": "66 ROAD", "ADDRESS": "102-01 66 ROAD", "CITY": "FOREST HILLS", "ZIPCODE": 11375.0, "FACTYPE": "HOSPITAL", "FACSUBGRP": "HOSPITALS AND CLINICS", "FACGROUP": "HEALTH CARE", "FACDOMAIN": "HEALTH AND HUMAN SERVICES", "SERVAREA": "Regional", "OPNAME": "Long Island Jewish Medical Center", "OPABBREV": "Non-public", "OPTYPE": "Non-public", "OVERAGENCY": "NYS Department of Health", "OVERABBREV": "NYSDOH", "OVERLEVEL": "State", "CAPACITY": null, "CAPTYPE": null, "BORO": "QUEENS", "BIN": 4051250.0, "BBL": 4021310016.0, "LATITUDE": 40.729000784502752, "LONGITUDE": -73.8516837753141, "XCOORD": 1025357.3362088552, "YCOORD": 204906.00798125533, "CD": 406.0, "NTA2010": "QN17", "NTA2020": "QN0602", "COUNCIL": 29.0, "CT2010": 71304.0, "CT2020": 71304.0, "BOROCODE": 4.0, "SCHOOLDIST": 28.0, "POLICEPRCT": 112.0, "DATASOURCE": "nysdoh_healthfacilities", "UID": "8853ac5f8789d5eb3fbaa4f46a12ae59" }, "geometry": { "type": "Point", "coordinates": [ -73.8516837753141, 40.729000784502752 ] } },
{ "type": "Feature", "properties": { "the_geom": null, "FACNAME": "LINCOLN MEDICAL AND MENTAL HEALTH CENTER", "ADDRESSNUM": "234", "STREETNAME": "EAST 149 STREET", "ADDRESS": "234 EAST 149 STREET", "CITY": "BRONX", "ZIPCODE": 10451.0, "FACTYPE": "ACUTE CARE HOSPITAL", "FACSUBGRP": "HOSPITALS AND CLINICS", "FACGROUP": "HEALTH CARE", "FACDOMAIN": "HEALTH AND HUMAN SERVICES", "SERVAREA": "Regional", "OPNAME": "NYC Health and Hospitals Corporation", "OPABBREV": "NYCHHC", "OPTYPE": "Public", "OVERAGENCY": "NYS Department of Health", "OVERABBREV": "NYSDOH", "OVERLEVEL": "State", "CAPACITY": null, "CAPTYPE": null, "BORO": "BRONX", "BIN": 2097050.0, "BBL": 2023350016.0, "LATITUDE": 40.817060574419941, "LONGITUDE": -73.924502123750429, "XCOORD": 1005147.3529296648, "YCOORD": 236963.34278791439, "CD": 201.0, "NTA2010": "BX34", "NTA2020": "BX0102", "COUNCIL": 17.0, "CT2010": 6500.0, "CT2020": 6500.0, "BOROCODE": 2.0, "SCHOOLDIST": 7.0, "POLICEPRCT": 40.0, "DATASOURCE": "hhc_hospitals", "UID": "8ca2205de3edd1cb4e1df3f2cf2d3dd3" }, "geometry": { "type": "Point", "coordinates": [ -73.924502123750429, 40.817060574419941 ] } },
{ "type": "Feature", "properties": { "the_geom": null, "FACNAME": "LENOX HEALTH GREENWICH VILLAGE", "ADDRESSNUM": "30", "STREETNAME": "SEVENTH AVENUE", "ADDRESS": "30 SEVENTH AVENUE", "CITY": "NEW YORK", "ZIPCODE": 10011.0, "FACTYPE": "HOSPITAL", "FACSUBGRP": "HOSPITALS AND CLINICS", "FACGROUP": "HEALTH CARE", "FACDOMAIN": "HEALTH AND HUMAN SERVICES", "SERVAREA": "Regional", "OPNAME": "Lenox Hill Hospital", "OPABBREV": "Non-public", "OPTYPE": "Non-public", "OVERAGENCY": "NYS Department of Health", "OVERABBREV": "NYSDOH", "OVERLEVEL": "State", "CAPACITY": null, "CAPTYPE": null, "BORO": "MANHATTAN", "BIN": 1011094.0, "BBL": 1006170055.0, "LATITUDE": 40.737719395656768, "LONGITUDE": -74.000863738788638, "XCOORD": 984010.63729774195, "YCOORD": 208047.67194386499, "CD": 102.0, "NTA2010": "MN23", "NTA2020": "MN0203", "COUNCIL": 3.0, "CT2010": 7700.0, "CT2020": 7700.0, "BOROCODE": 1.0, "SCHOOLDIST": 2.0, "POLICEPRCT": 6.0, "DATASOURCE": "nysdoh_healthfacilities", "UID": "9130074b8ca5d9d9d774cb43beeaa18d" }, "geometry": { "type": "Point", "coordinates": [ -74.000863738788638, 40.737719395656768 ] } },
{ "type": "Feature", "properties": { "the_geom": null, "FACNAME": "NEW YORK-PRESBYTERIAN HOSPITAL - ALLEN HOSPITAL", "ADDRESSNUM": "5141", "STREETNAME": "BROADWAY", "ADDRESS": "5141 BROADWAY", "CITY": "NEW YORK", "ZIPCODE": 10034.0, "FACTYPE": "HOSPITAL", "FACSUBGRP": "HOSPITALS AND CLINICS", "FACGROUP": "HEALTH CARE", "FACDOMAIN": "HEALTH AND HUMAN SERVICES", "SERVAREA": "Regional", "OPNAME": "The New York and Presbyterian Hospital", "OPABBREV": "Non-public", "OPTYPE": "Non-public", "OVERAGENCY": "NYS Department of Health", "OVERABBREV": "NYSDOH", "OVERLEVEL": "State", "CAPACITY": null, "CAPTYPE": null, "BORO": "MANHATTAN", "BIN": 1065045.0, "BBL": 1022440100.0, "LATITUDE": 40.873337592628815, "LONGITUDE": -73.913023820883012, "XCOORD": 1008304.117903998, "YCOORD": 257470.11893621352, "CD": 112.0, "NTA2010": "MN99", "NTA2020": "MN1292", "COUNCIL": 10.0, "CT2010": 29700.0, "CT2020": 29700.0, "BOROCODE": 1.0, "SCHOOLDIST": 6.0, "POLICEPRCT": 34.0, "DATASOURCE": "nysdoh_healthfacilities", "UID": "93cd1c30c64c0c42e6da1d5a1a84b8d1" }, "geometry": { "type": "Point", "coordinates": [ -73.913023820883012, 40.873337592628815 ] } },
{ "type": "Feature", "properties": { "the_geom": null, "FACNAME": "RICHMOND UNIVERSITY MEDICAL CENTER", "ADDRESSNUM": "355", "STREETNAME": "BARD AVENUE", "ADDRESS": "355 BARD AVENUE", "CITY": "STATEN ISLAND", "ZIPCODE": 10310.0, "FACTYPE": "HOSPITAL", "FACSUBGRP": "HOSPITALS AND CLINICS", "FACGROUP": "HEALTH CARE", "FACDOMAIN": "HEALTH AND HUMAN SERVICES", "SERVAREA": "Regional", "OPNAME": "Bridge Regional Health System", "OPABBREV": "Non-public", "OPTYPE": "Non-public", "OVERAGENCY": "NYS Department of Health", "OVERABBREV": "NYSDOH", "OVERLEVEL": "State", "CAPACITY": null, "CAPTYPE": null, "BORO": "STATEN ISLAND", "BIN": 5106523.0, "BBL": 5001020001.0, "LATITUDE": 40.635707476108259, "LONGITUDE": -74.105902237197171, "XCOORD": 954857.02879293822, "YCOORD": 170899.51976142547, "CD": 501.0, "NTA2010": "SI35", "NTA2020": "SI0104", "COUNCIL": 49.0, "CT2010": 6700.0, "CT2020": 6700.0, "BOROCODE": 5.0, "SCHOOLDIST": 31.0, "POLICEPRCT": 120.0, "DATASOURCE": "nysdoh_healthfacilities", "UID": "9b1e4cc86ba0afaf1b3442df06ce66af" }, "geometry": { "type": "Point", "coordinates": [ -74.105902237197171, 40.635707476108259 ] } },
{ "type": "Feature", "properties": { "the_geom": null, "FACNAME": "MOUNT SINAI BETH ISRAEL", "ADDRESSNUM": null, "STREETNAME": null, "ADDRESS": null, "CITY": "NEW YORK", "ZIPCODE": 10003.0, "FACTYPE": "HOSPITAL", "FACSUBGRP": "HOSPITALS AND CLINICS", "FACGROUP": "HEALTH CARE", "FACDOMAIN": "HEALTH AND HUMAN SERVICES", "SERVAREA": "Regional", "OPNAME": "Beth Israel Medical Center Inc", "OPABBREV": "Non-public", "OPTYPE": "Non-public", "OVERAGENCY": "NYS Department of Health", "OVERABBREV": "NYSDOH", "OVERLEVEL": "State", "CAPACITY": null, "CAPTYPE": null, "BORO": "MANHATTAN", "BIN": null, "BBL": null, "LATITUDE": 40.732666, "LONGITUDE": -73.981598, "XCOORD": 989350.02160636801, "YCOORD": 206207.09547651751, "CD": 106.0, "NTA2010": "MN21", "NTA2020": "MN0602", "COUNCIL": 2.0, "CT2010": 4800.0, "CT2020": 4800.0, "BOROCODE": 1.0, "SCHOOLDIST": 2.0, "POLICEPRCT": 13.0, "DATASOURCE": "nysdoh_healthfacilities", "UID": "9e0a6af7cfe9ee441f59ccd112e15d34" }, "geometry": { "type": "Point", "coordinates": [ -73.981598, 40.732666 ] } },
{ "type": "Feature", "properties": { "the_geom": null, "FACNAME": "NEW YORK-PRESBYTERIAN DAVID H. KOCH CENTER", "ADDRESSNUM": "1283", "STREETNAME": "YORK AVENUE", "ADDRESS": "1283 YORK AVENUE", "CITY": "NEW YORK", "ZIPCODE": 10065.0, "FACTYPE": "HOSPITAL", "FACSUBGRP": "HOSPITALS AND CLINICS", "FACGROUP": "HEALTH CARE", "FACDOMAIN": "HEALTH AND HUMAN SERVICES", "SERVAREA": "Regional", "OPNAME": "The New York and Presbyterian Hospital", "OPABBREV": "Non-public", "OPTYPE": "Non-public", "OVERAGENCY": "NYS Department of Health", "OVERABBREV": "NYSDOH", "OVERLEVEL": "State", "CAPACITY": null, "CAPTYPE": null, "BORO": "MANHATTAN", "BIN": 1090254.0, "BBL": 1014630021.0, "LATITUDE": 40.764850431718877, "LONGITUDE": -73.955863141515621, "XCOORD": 996476.39938846196, "YCOORD": 217935.46333816339, "CD": 108.0, "NTA2010": "MN31", "NTA2020": "MN0801", "COUNCIL": 5.0, "CT2010": 11600.0, "CT2020": 11600.0, "BOROCODE": 1.0, "SCHOOLDIST": 2.0, "POLICEPRCT": 19.0, "DATASOURCE": "nysdoh_healthfacilities", "UID": "a60b992f45b23c91e87388fd6b8a8f0f" }, "geometry": { "type": "Point", "coordinates": [ -73.955863141515621, 40.764850431718877 ] } },
{ "type": "Feature", "properties": { "the_geom": null, "FACNAME": "MAIMONIDES MEDICAL CENTER", "ADDRESSNUM": "4802", "STREETNAME": "TENTH AVENUE", "ADDRESS": "4802 TENTH AVENUE", "CITY": "BROOKLYN", "ZIPCODE": 11219.0, "FACTYPE": "HOSPITAL", "FACSUBGRP": "HOSPITALS AND CLINICS", "FACGROUP": "HEALTH CARE", "FACDOMAIN": "HEALTH AND HUMAN SERVICES", "SERVAREA": "Regional", "OPNAME": "Maimonides Medical Center", "OPABBREV": "Non-public", "OPTYPE": "Non-public", "OVERAGENCY": "NYS Department of Health", "OVERABBREV": "NYSDOH", "OVERLEVEL": "State", "CAPACITY": null, "CAPTYPE": null, "BORO": "BROOKLYN", "BIN": 3336293.0, "BBL": 3056310038.0, "LATITUDE": 40.639687080492479, "LONGITUDE": -73.998955317186372, "XCOORD": 984539.93257343594, "YCOORD": 172331.63140243487, "CD": 312.0, "NTA2010": "BK88", "NTA2020": "BK1201", "COUNCIL": 38.0, "CT2010": 11400.0, "CT2020": 11400.0, "BOROCODE": 3.0, "SCHOOLDIST": 20.0, "POLICEPRCT": 66.0, "DATASOURCE": "nysdoh_healthfacilities", "UID": "a772f225e69700a2e5a125fc582399da" }, "geometry": { "type": "Point", "coordinates": [ -73.998955317186372, 40.639687080492479 ] } },
{ "type": "Feature", "properties": { "the_geom": null, "FACNAME": "DAVID H. KOCH CENTER FOR CANCER CARE", "ADDRESSNUM": "530", "STREETNAME": "EAST 74 STREET", "ADDRESS": "530 EAST 74 STREET", "CITY": "NEW YORK", "ZIPCODE": 10021.0, "FACTYPE": "HOSPITAL", "FACSUBGRP": "HOSPITALS AND CLINICS", "FACGROUP": "HEALTH CARE", "FACDOMAIN": "HEALTH AND HUMAN SERVICES", "SERVAREA": "Regional", "OPNAME": "Memorial Hospital for Cancer and Allied Diseases Inc", "OPABBREV": "Non-public", "OPTYPE": "Non-public", "OVERAGENCY": "NYS Department of Health", "OVERABBREV": "NYSDOH", "OVERLEVEL": "State", "CAPACITY": null, "CAPTYPE": null, "BORO": "MANHATTAN", "BIN": 1090713.0, "BBL": 1014850015.0, "LATITUDE": 40.767033908023109, "LONGITUDE": -73.951038656457982, "XCOORD": 997812.39049122541, "YCOORD": 218731.68600272576, "CD": 108.0, "NTA2010": "MN31", "NTA2020": "MN0801", "COUNCIL": 5.0, "CT2010": 12400.0, "CT2020": 12400.0, "BOROCODE": 1.0, "SCHOOLDIST": 2.0, "POLICEPRCT": 19.0, "DATASOURCE": "nysdoh_healthfacilities", "UID": "a8b7b54be0933635686c9537f3dad64c" }, "geometry": { "type": "Point", "coordinates": [ -73.951038656457982, 40.767033908023109 ] } },
{ "type": "Feature", "properties": { "the_geom": null, "FACNAME": "MOUNT SINAI HOSPITAL", "ADDRESSNUM": "1", "STREETNAME": "GUSTAVE L LEVY PLACE", "ADDRESS": "1 GUSTAVE L LEVY PLACE", "CITY": "NEW YORK", "ZIPCODE": 10029.0, "FACTYPE": "HOSPITAL", "FACSUBGRP": "HOSPITALS AND CLINICS", "FACGROUP": "HEALTH CARE", "FACDOMAIN": "HEALTH AND HUMAN SERVICES", "SERVAREA": "Regional", "OPNAME": "The Mount Sinai Hospital", "OPABBREV": "Non-public", "OPTYPE": "Non-public", "OVERAGENCY": "NYS Department of Health", "OVERABBREV": "NYSDOH", "OVERLEVEL": "State", "CAPACITY": null, "CAPTYPE": null, "BORO": "MANHATTAN", "BIN": 1083923.0, "BBL": 1016040006.0, "LATITUDE": 40.790403710369169, "LONGITUDE": -73.952857622217792, "XCOORD": 997303.95115637046, "YCOORD": 227245.81643030961, "CD": 111.0, "NTA2010": "MN33", "NTA2020": "MN1101", "COUNCIL": 8.0, "CT2010": 16800.0, "CT2020": 16800.0, "BOROCODE": 1.0, "SCHOOLDIST": 4.0, "POLICEPRCT": 23.0, "DATASOURCE": "nysdoh_healthfacilities", "UID": "ac46892cba26ad1c94e3cecc3684b2b8" }, "geometry": { "type": "Point", "coordinates": [ -73.952857622217792, 40.790403710369169 ] } },
{ "type": "Feature", "properties": { "the_geom": null, "FACNAME": "BROOKLYN HOSPITAL CENTER - DOWNTOWN CAMPUS", "ADDRESSNUM": "121", "STREETNAME": "DEKALB AVENUE", "ADDRESS": "121 DEKALB AVENUE", "CITY": "BROOKLYN", "ZIPCODE": 11201.0, "FACTYPE": "HOSPITAL", "FACSUBGRP": "HOSPITALS AND CLINICS", "FACGROUP": "HEALTH CARE", "FACDOMAIN": "HEALTH AND HUMAN SERVICES", "SERVAREA": "Regional", "OPNAME": "The Brooklyn Hospital Center", "OPABBREV": "Non-public", "OPTYPE": "Non-public", "OVERAGENCY": "NYS Department of Health", "OVERABBREV": "NYSDOH", "OVERLEVEL": "State", "CAPACITY": null, "CAPTYPE": null, "BORO": "BROOKLYN", "BIN": 3058410.0, "BBL": 3020880004.0, "LATITUDE": 40.690630159825922, "LONGITUDE": -73.977889310797252, "XCOORD": 990381.73180680245, "YCOORD": 190892.40341543048, "CD": 302.0, "NTA2010": "BK68", "NTA2020": "BK0203", "COUNCIL": 35.0, "CT2010": 3100.0, "CT2020": 3101.0, "BOROCODE": 3.0, "SCHOOLDIST": 13.0, "POLICEPRCT": 88.0, "DATASOURCE": "nysdoh_healthfacilities", "UID": "b7c2c488b040c55d0204ecc3ee225a29" }, "geometry": { "type": "Point", "coordinates": [ -73.977889310797252, 40.690630159825922 ] } },
{ "type": "Feature", "properties": { "the_geom": null, "FACNAME": "BELLEVUE HOSPITAL CENTER", "ADDRESSNUM": "462", "STREETNAME": "FIRST AVENUE", "ADDRESS": "462 FIRST AVENUE", "CITY": "NEW YORK", "ZIPCODE": 10016.0, "FACTYPE": "HOSPITAL", "FACSUBGRP": "HOSPITALS AND CLINICS", "FACGROUP": "HEALTH CARE", "FACDOMAIN": "HEALTH AND HUMAN SERVICES", "SERVAREA": "Regional", "OPNAME": "NYC Health and Hospitals Corporation", "OPABBREV": "Non-public", "OPTYPE": "Non-public", "OVERAGENCY": "NYS Department of Health", "OVERABBREV": "NYSDOH", "OVERLEVEL": "State", "CAPACITY": null, "CAPTYPE": null, "BORO": "MANHATTAN", "BIN": 1086515.0, "BBL": 1009620100.0, "LATITUDE": 40.739245269489935, "LONGITUDE": -73.97548758043726, "XCOORD": 991042.82280570955, "YCOORD": 208604.54527025748, "CD": 106.0, "NTA2010": "MN20", "NTA2020": "MN0603", "COUNCIL": 4.0, "CT2010": 6200.0, "CT2020": 6200.0, "BOROCODE": 1.0, "SCHOOLDIST": 2.0, "POLICEPRCT": 13.0, "DATASOURCE": "nysdoh_healthfacilities", "UID": "bc47052f679ba3fd2dfe082ee13f13a5" }, "geometry": { "type": "Point", "coordinates": [ -73.97548758043726, 40.739245269489935 ] } },
{ "type": "Feature", "properties": { "the_geom": null, "FACNAME": "NYU LANGONE HOSPITAL - JOSEPH S. AND DIANE H. STEINBERG AMBULATORY CARE CENTER", "ADDRESSNUM": "70", "STREETNAME": "ATLANTIC AVENUE", "ADDRESS": "70 ATLANTIC AVENUE", "CITY": "BROOKLYN", "ZIPCODE": 11201.0, "FACTYPE": "HOSPITAL", "FACSUBGRP": "HOSPITALS AND CLINICS", "FACGROUP": "HEALTH CARE", "FACDOMAIN": "HEALTH AND HUMAN SERVICES", "SERVAREA": "Regional", "OPNAME": "NYU Langone Hospitals", "OPABBREV": "Non-public", "OPTYPE": "Non-public", "OVERAGENCY": "NYS Department of Health", "OVERABBREV": "NYSDOH", "OVERLEVEL": "State", "CAPACITY": null, "CAPTYPE": null, "BORO": "BROOKLYN", "BIN": 3425857.0, "BBL": 3002840007.0, "LATITUDE": 40.690653560108963, "LONGITUDE": -73.997535327247363, "XCOORD": 984933.50231088884, "YCOORD": 190900.16457523449, "CD": 306.0, "NTA2010": "BK33", "NTA2020": "BK0601", "COUNCIL": 39.0, "CT2010": 4900.0, "CT2020": 4900.0, "BOROCODE": 3.0, "SCHOOLDIST": 15.0, "POLICEPRCT": 76.0, "DATASOURCE": "nysdoh_healthfacilities", "UID": "bdb5be788d73a189a489598c8e1fa5e7" }, "geometry": { "type": "Point", "coordinates": [ -73.997535327247363, 40.690653560108963 ] } },
{ "type": "Feature", "properties": { "the_geom": null, "FACNAME": "NEW YORK-PRESBYTERIAN HOSPITAL - NEW YORK WEILL CORNELL CENTER", "ADDRESSNUM": "525", "STREETNAME": "EAST 68 STREET", "ADDRESS": "525 EAST 68 STREET", "CITY": "NEW YORK", "ZIPCODE": 10065.0, "FACTYPE": "HOSPITAL", "FACSUBGRP": "HOSPITALS AND CLINICS", "FACGROUP": "HEALTH CARE", "FACDOMAIN": "HEALTH AND HUMAN SERVICES", "SERVAREA": "Regional", "OPNAME": "The New York and Presbyterian Hospital", "OPABBREV": "Non-public", "OPTYPE": "Non-public", "OVERAGENCY": "NYS Department of Health", "OVERABBREV": "NYSDOH", "OVERLEVEL": "State", "CAPACITY": null, "CAPTYPE": null, "BORO": "MANHATTAN", "BIN": 1084781.0, "BBL": 1014800001.0, "LATITUDE": 40.764720784593926, "LONGITUDE": -73.953918688820494, "XCOORD": 997015.05915347603, "YCOORD": 217888.50599433231, "CD": 108.0, "NTA2010": "MN31", "NTA2020": "MN0801", "COUNCIL": 5.0, "CT2010": 11600.0, "CT2020": 11600.0, "BOROCODE": 1.0, "SCHOOLDIST": 2.0, "POLICEPRCT": 19.0, "DATASOURCE": "nysdoh_healthfacilities", "UID": "bdf3d0f9a82e502aac6dd3af115610f7" }, "geometry": { "type": "Point", "coordinates": [ -73.953918688820494, 40.764720784593926 ] } },
{ "type": "Feature", "properties": { "the_geom": null, "FACNAME": "INTERFAITH MEDICAL CENTER", "ADDRESSNUM": "1545", "STREETNAME": "ATLANTIC AVENUE", "ADDRESS": "1545 ATLANTIC AVENUE", "CITY": "BROOKLYN", "ZIPCODE": 11213.0, "FACTYPE": "HOSPITAL", "FACSUBGRP": "HOSPITALS AND CLINICS", "FACGROUP": "HEALTH CARE", "FACDOMAIN": "HEALTH AND HUMAN SERVICES", "SERVAREA": "Regional", "OPNAME": "The Brookdale Hospital Medical Center", "OPABBREV": "Non-public", "OPTYPE": "Non-public", "OVERAGENCY": "NYS Department of Health", "OVERABBREV": "NYSDOH", "OVERLEVEL": "State", "CAPACITY": null, "CAPTYPE": null, "BORO": "BROOKLYN", "BIN": 3048072.0, "BBL": 3017050001.0, "LATITUDE": 40.678439660667195, "LONGITUDE": -73.937367399032837, "XCOORD": 1001622.4343891472, "YCOORD": 186456.48751676944, "CD": 303.0, "NTA2010": "BK61", "NTA2020": "BK0302", "COUNCIL": 36.0, "CT2010": 27100.0, "CT2020": 27100.0, "BOROCODE": 3.0, "SCHOOLDIST": 16.0, "POLICEPRCT": 81.0, "DATASOURCE": "nysdoh_healthfacilities", "UID": "c337bcf917ca592aa0c822251c263d7b" }, "geometry": { "type": "Point", "coordinates": [ -73.937367399032837, 40.678439660667195 ] } },
{ "type": "Feature", "properties": { "the_geom": null, "FACNAME": "QUEENS HOSPITAL CENTER", "ADDRESSNUM": "82-68", "STREETNAME": "164 STREET", "ADDRESS": "82-68 164 STREET", "CITY": "JAMAICA", "ZIPCODE": 11432.0, "FACTYPE": "HOSPITAL", "FACSUBGRP": "HOSPITALS AND CLINICS", "FACGROUP": "HEALTH CARE", "FACDOMAIN": "HEALTH AND HUMAN SERVICES", "SERVAREA": "Regional", "OPNAME": "NYC Health and Hospitals Corporation", "OPABBREV": "Non-public", "OPTYPE": "Non-public", "OVERAGENCY": "NYS Department of Health", "OVERABBREV": "NYSDOH", "OVERLEVEL": "State", "CAPACITY": null, "CAPTYPE": null, "BORO": "QUEENS", "BIN": 4442431.0, "BBL": 4068580001.0, "LATITUDE": 40.717872564375433, "LONGITUDE": -73.804518965314571, "XCOORD": 1038438.5671289013, "YCOORD": 200877.31656568113, "CD": 408.0, "NTA2010": "QN38", "NTA2020": "QN0802", "COUNCIL": 24.0, "CT2010": 126700.0, "CT2020": 126700.0, "BOROCODE": 4.0, "SCHOOLDIST": 28.0, "POLICEPRCT": 107.0, "DATASOURCE": "nysdoh_healthfacilities", "UID": "c73697270e818e4a7725b874110fc8d5" }, "geometry": { "type": "Point", "coordinates": [ -73.804518965314571, 40.717872564375433 ] } },
{ "type": "Feature", "properties": { "the_geom": null, "FACNAME": "MOUNT SINAI MORNINGSIDE", "ADDRESSNUM": "1111", "STREETNAME": "AMSTERDAM AVENUE", "ADDRESS": "1111 AMSTERDAM AVENUE", "CITY": "NEW YORK", "ZIPCODE": 10025.0, "FACTYPE": "HOSPITAL", "FACSUBGRP": "HOSPITALS AND CLINICS", "FACGROUP": "HEALTH CARE", "FACDOMAIN": "HEALTH AND HUMAN SERVICES", "SERVAREA": "Regional", "OPNAME": "St Lukes Roosevelt Hospital Center Inc", "OPABBREV": "Non-public", "OPTYPE": "Non-public", "OVERAGENCY": "NYS Department of Health", "OVERABBREV": "NYSDOH", "OVERLEVEL": "State", "CAPACITY": null, "CAPTYPE": null, "BORO": "MANHATTAN", "BIN": 1056035.0, "BBL": 1018670001.0, "LATITUDE": 40.805692626984637, "LONGITUDE": -73.961445145450753, "XCOORD": 994923.57314583077, "YCOORD": 232814.937937968, "CD": 109.0, "NTA2010": "MN09", "NTA2020": "MN0901", "COUNCIL": 7.0, "CT2010": 20101.0, "CT2020": 20101.0, "BOROCODE": 1.0, "SCHOOLDIST": 3.0, "POLICEPRCT": 26.0, "DATASOURCE": "nysdoh_healthfacilities", "UID": "ce93f19265f2b370ec528d1550fa8221" }, "geometry": { "type": "Point", "coordinates": [ -73.961445145450753, 40.805692626984637 ] } },
{ "type": "Feature", "properties": { "the_geom": null, "FACNAME": "NEWYORK-PRESBYTERIAN BROOKLYN METHODIST HOSPITAL", "ADDRESSNUM": "506", "STREETNAME": "SIXTH STREET", "ADDRESS": "506 SIXTH STREET", "CITY": "BROOKLYN", "ZIPCODE": 11215.0, "FACTYPE": "HOSPITAL", "FACSUBGRP": "HOSPITALS AND CLINICS", "FACGROUP": "HEALTH CARE", "FACDOMAIN": "HEALTH AND HUMAN SERVICES", "SERVAREA": "Regional", "OPNAME": "The New York and Presbyterian Hospital", "OPABBREV": "Non-public", "OPTYPE": "Non-public", "OVERAGENCY": "NYS Department of Health", "OVERABBREV": "NYSDOH", "OVERLEVEL": "State", "CAPACITY": null, "CAPTYPE": null, "BORO": "BROOKLYN", "BIN": 3337808.0, "BBL": 3010860001.0, "LATITUDE": 40.667812364883098, "LONGITUDE": -73.979107361945282, "XCOORD": 990045.92487783078, "YCOORD": 182579.14101807601, "CD": 306.0, "NTA2010": "BK37", "NTA2020": "BK0602", "COUNCIL": 39.0, "CT2010": 15300.0, "CT2020": 15300.0, "BOROCODE": 3.0, "SCHOOLDIST": 15.0, "POLICEPRCT": 78.0, "DATASOURCE": "nysdoh_healthfacilities", "UID": "d0c7ad502ba042e107f1bbfc8d50c915" }, "geometry": { "type": "Point", "coordinates": [ -73.979107361945282, 40.667812364883098 ] } },
{ "type": "Feature", "properties": { "the_geom": null, "FACNAME": "WOODHULL MEDICAL AND MENTAL HEALTH CENTER", "ADDRESSNUM": "760", "STREETNAME": "BROADWAY", "ADDRESS": "760 BROADWAY", "CITY": "BROOKLYN", "ZIPCODE": 11206.0, "FACTYPE": "ACUTE CARE HOSPITAL", "FACSUBGRP": "HOSPITALS AND CLINICS", "FACGROUP": "HEALTH CARE", "FACDOMAIN": "HEALTH AND HUMAN SERVICES", "SERVAREA": "Regional", "OPNAME": "NYC Health and Hospitals Corporation", "OPABBREV": "NYCHHC", "OPTYPE": "Public", "OVERAGENCY": "NYS Department of Health", "OVERABBREV": "NYSDOH", "OVERLEVEL": "State", "CAPACITY": null, "CAPTYPE": null, "BORO": "BROOKLYN", "BIN": 3048341.0, "BBL": 3017230001.0, "LATITUDE": 40.699576232607775, "LONGITUDE": -73.942388058746062, "XCOORD": 1000224.7871560795, "YCOORD": 194156.20112176193, "CD": 303.0, "NTA2010": "BK78", "NTA2020": "BK0302", "COUNCIL": 36.0, "CT2010": 28501.0, "CT2020": 28501.0, "BOROCODE": 3.0, "SCHOOLDIST": 14.0, "POLICEPRCT": 81.0, "DATASOURCE": "hhc_hospitals", "UID": "d35166b74dc46cee7f2a368f42f3d961" }, "geometry": { "type": "Point", "coordinates": [ -73.942388058746062, 40.699576232607775 ] } },
{ "type": "Feature", "properties": { "the_geom": null, "FACNAME": "STATEN ISLAND UNIVERSITY HOSP-NORTH", "ADDRESSNUM": "475", "STREETNAME": "SEAVIEW AVENUE", "ADDRESS": "475 SEAVIEW AVENUE", "CITY": "STATEN ISLAND", "ZIPCODE": 10305.0, "FACTYPE": "HOSPITAL", "FACSUBGRP": "HOSPITALS AND CLINICS", "FACGROUP": "HEALTH CARE", "FACDOMAIN": "HEALTH AND HUMAN SERVICES", "SERVAREA": "Regional", "OPNAME": "Staten Island University Hospital", "OPABBREV": "Non-public", "OPTYPE": "Non-public", "OVERAGENCY": "NYS Department of Health", "OVERABBREV": "NYSDOH", "OVERLEVEL": "State", "CAPACITY": null, "CAPTYPE": null, "BORO": "STATEN ISLAND", "BIN": 5049717.0, "BBL": 5033550032.0, "LATITUDE": 40.584759664924931, "LONGITUDE": -74.086046758574639, "XCOORD": 960349.64532979042, "YCOORD": 152331.87852977091, "CD": 502.0, "NTA2010": "SI36", "NTA2020": "SI0201", "COUNCIL": 50.0, "CT2010": 7000.0, "CT2020": 7002.0, "BOROCODE": 5.0, "SCHOOLDIST": 31.0, "POLICEPRCT": 122.0, "DATASOURCE": "nysdoh_healthfacilities", "UID": "d5202e5328c095cba64cccb7d4a46dbc" }, "geometry": { "type": "Point", "coordinates": [ -74.086046758574639, 40.584759664924931 ] } },
{ "type": "Feature", "properties": { "the_geom": null, "FACNAME": "HENRY J. CARTER SPECIALTY HOSPITAL", "ADDRESSNUM": "1752", "STREETNAME": "PARK AVENUE", "ADDRESS": "1752 PARK AVENUE", "CITY": "NEW YORK", "ZIPCODE": 10035.0, "FACTYPE": "HOSPITAL", "FACSUBGRP": "HOSPITALS AND CLINICS", "FACGROUP": "HEALTH CARE", "FACDOMAIN": "HEALTH AND HUMAN SERVICES", "SERVAREA": "Regional", "OPNAME": "NYC Health and Hospitals Corporation", "OPABBREV": "Non-public", "OPTYPE": "Non-public", "OVERAGENCY": "NYS Department of Health", "OVERABBREV": "NYSDOH", "OVERLEVEL": "State", "CAPACITY": null, "CAPTYPE": null, "BORO": "MANHATTAN", "BIN": 1088883.0, "BBL": 1017470070.0, "LATITUDE": 40.80299578710548, "LONGITUDE": -73.94111148578942, "XCOORD": 1000553.428220509, "YCOORD": 231835.51537704677, "CD": 111.0, "NTA2010": "MN34", "NTA2020": "MN1102", "COUNCIL": 9.0, "CT2010": 19800.0, "CT2020": 19800.0, "BOROCODE": 1.0, "SCHOOLDIST": 5.0, "POLICEPRCT": 25.0, "DATASOURCE": "nysdoh_healthfacilities", "UID": "dc8799f5ac9cec1d0159650fb4aa98df" }, "geometry": { "type": "Point", "coordinates": [ -73.94111148578942, 40.80299578710548 ] } },
{ "type": "Feature", "properties": { "the_geom": null, "FACNAME": "KINGS COUNTY HOSPITAL CENTER", "ADDRESSNUM": "451", "STREETNAME": "CLARKSON AVENUE", "ADDRESS": "451 CLARKSON AVENUE", "CITY": "BROOKLYN", "ZIPCODE": 11203.0, "FACTYPE": "ACUTE CARE HOSPITAL", "FACSUBGRP": "HOSPITALS AND CLINICS", "FACGROUP": "HEALTH CARE", "FACDOMAIN": "HEALTH AND HUMAN SERVICES", "SERVAREA": "Regional", "OPNAME": "NYC Health and Hospitals Corporation", "OPABBREV": "NYCHHC", "OPTYPE": "Public", "OVERAGENCY": "NYS Department of Health", "OVERABBREV": "NYSDOH", "OVERLEVEL": "State", "CAPACITY": null, "CAPTYPE": null, "BORO": "BROOKLYN", "BIN": 3327711.0, "BBL": 3048290001.0, "LATITUDE": 40.656637763530981, "LONGITUDE": -73.944933328265009, "XCOORD": 999528.86256283917, "YCOORD": 178512.03148906492, "CD": 309.0, "NTA2010": "BK60", "NTA2020": "BK0902", "COUNCIL": 40.0, "CT2010": 80800.0, "CT2020": 80800.0, "BOROCODE": 3.0, "SCHOOLDIST": 18.0, "POLICEPRCT": 71.0, "DATASOURCE": "hhc_hospitals", "UID": "dd06832728f1c4e7bcca95dd8720a045" }, "geometry": { "type": "Point", "coordinates": [ -73.944933328265009, 40.656637763530981 ] } },
{ "type": "Feature", "properties": { "the_geom": null, "FACNAME": "QUEENS HOSPITAL CENTER", "ADDRESSNUM": null, "STREETNAME": null, "ADDRESS": "82 70 164TH STREET JAMAICA, NY", "CITY": "JAMAICA", "ZIPCODE": 11432.0, "FACTYPE": "ACUTE CARE HOSPITAL", "FACSUBGRP": "HOSPITALS AND CLINICS", "FACGROUP": "HEALTH CARE", "FACDOMAIN": "HEALTH AND HUMAN SERVICES", "SERVAREA": "Regional", "OPNAME": "NYC Health and Hospitals Corporation", "OPABBREV": "NYCHHC", "OPTYPE": "Public", "OVERAGENCY": "NYS Department of Health", "OVERABBREV": "NYSDOH", "OVERLEVEL": "State", "CAPACITY": null, "CAPTYPE": null, "BORO": "QUEENS", "BIN": 4439812.0, "BBL": 4068580001.0, "LATITUDE": 40.717777, "LONGITUDE": -73.805293, "XCOORD": 1038224.0776099084, "YCOORD": 200842.02174841313, "CD": 408.0, "NTA2010": "QN38", "NTA2020": "QN0802", "COUNCIL": 24.0, "CT2010": 126700.0, "CT2020": 126700.0, "BOROCODE": 4.0, "SCHOOLDIST": 28.0, "POLICEPRCT": 107.0, "DATASOURCE": "hhc_hospitals", "UID": "dee581d1e5be1b9787cfadf366c6d346" }, "geometry": { "type": "Point", "coordinates": [ -73.805293, 40.717777 ] } },
{ "type": "Feature", "properties": { "the_geom": null, "FACNAME": "NEW YORK-PRESBYTERIAN HOSPITAL - COLUMBIA PRESBYTERIAN CENTER", "ADDRESSNUM": "622", "STREETNAME": "WEST 168 STREET", "ADDRESS": "622 WEST 168 STREET", "CITY": "NEW YORK", "ZIPCODE": 10032.0, "FACTYPE": "HOSPITAL", "FACSUBGRP": "HOSPITALS AND CLINICS", "FACGROUP": "HEALTH CARE", "FACDOMAIN": "HEALTH AND HUMAN SERVICES", "SERVAREA": "Regional", "OPNAME": "The New York and Presbyterian Hospital", "OPABBREV": "Non-public", "OPTYPE": "Non-public", "OVERAGENCY": "NYS Department of Health", "OVERABBREV": "NYSDOH", "OVERLEVEL": "State", "CAPACITY": null, "CAPTYPE": null, "BORO": "MANHATTAN", "BIN": 1091001.0, "BBL": 1021380040.0, "LATITUDE": 40.841148373930288, "LONGITUDE": -73.940809928381739, "XCOORD": 1000627.5225295988, "YCOORD": 245735.939897798, "CD": 112.0, "NTA2010": "MN36", "NTA2020": "MN1201", "COUNCIL": 10.0, "CT2010": 25100.0, "CT2020": 25100.0, "BOROCODE": 1.0, "SCHOOLDIST": 6.0, "POLICEPRCT": 33.0, "DATASOURCE": "nysdoh_healthfacilities", "UID": "defa3a68a9c8424bd98e3b98a1d92104" }, "geometry": { "type": "Point", "coordinates": [ -73.940809928381739, 40.841148373930288 ] } },
{ "type": "Feature", "properties": { "the_geom": null, "FACNAME": "MONTEFIORE MEDICAL CENTER - MONTEFIORE WESTCHESTER SQUARE", "ADDRESSNUM": "2475", "STREETNAME": "ST RAYMOND AVENUE", "ADDRESS": "2475 ST RAYMOND AVENUE", "CITY": "BRONX", "ZIPCODE": 10461.0, "FACTYPE": "HOSPITAL", "FACSUBGRP": "HOSPITALS AND CLINICS", "FACGROUP": "HEALTH CARE", "FACDOMAIN": "HEALTH AND HUMAN SERVICES", "SERVAREA": "Regional", "OPNAME": "Montefiore Medical Center", "OPABBREV": "Non-public", "OPTYPE": "Non-public", "OVERAGENCY": "NYS Department of Health", "OVERABBREV": "NYSDOH", "OVERLEVEL": "State", "CAPACITY": null, "CAPTYPE": null, "BORO": "BRONX", "BIN": 2042138.0, "BBL": 2039940001.0, "LATITUDE": 40.840678175256656, "LONGITUDE": -73.848401645562646, "XCOORD": 1026196.5950175644, "YCOORD": 245595.39273673604, "CD": 210.0, "NTA2010": "BX59", "NTA2020": "BX1001", "COUNCIL": 13.0, "CT2010": 20400.0, "CT2020": 20400.0, "BOROCODE": 2.0, "SCHOOLDIST": 11.0, "POLICEPRCT": 45.0, "DATASOURCE": "nysdoh_healthfacilities", "UID": "e0ac97ef129a1233d60e83f88326c8c1" }, "geometry": { "type": "Point", "coordinates": [ -73.848401645562646, 40.840678175256656 ] } },
{ "type": "Feature", "properties": { "the_geom": null, "FACNAME": "MONTEFIORE MEDICAL CENTER-WAKEFIELD HOSPITAL", "ADDRESSNUM": "600", "STREETNAME": "EAST 233 STREET", "ADDRESS": "600 EAST 233 STREET", "CITY": "BRONX", "ZIPCODE": 10466.0, "FACTYPE": "HOSPITAL", "FACSUBGRP": "HOSPITALS AND CLINICS", "FACGROUP": "HEALTH CARE", "FACDOMAIN": "HEALTH AND HUMAN SERVICES", "SERVAREA": "Regional", "OPNAME": "Montefiore Medical Center", "OPABBREV": "Non-public", "OPTYPE": "Non-public", "OVERAGENCY": "NYS Department of Health", "OVERABBREV": "NYSDOH", "OVERLEVEL": "State", "CAPACITY": null, "CAPTYPE": null, "BORO": "BRONX", "BIN": 2062884.0, "BBL": 2048230024.0, "LATITUDE": 40.893525190842574, "LONGITUDE": -73.861190261514338, "XCOORD": 1022627.5336296278, "YCOORD": 264843.73749257502, "CD": 212.0, "NTA2010": "BX44", "NTA2020": "BX1203", "COUNCIL": 12.0, "CT2010": 42000.0, "CT2020": 42000.0, "BOROCODE": 2.0, "SCHOOLDIST": 11.0, "POLICEPRCT": 47.0, "DATASOURCE": "nysdoh_healthfacilities", "UID": "e538b1074b1bf62e805ce04dad7678cd" }, "geometry": { "type": "Point", "coordinates": [ -73.861190261514338, 40.893525190842574 ] } },
{ "type": "Feature", "properties": { "the_geom": null, "FACNAME": "NEWYORK-PRESBYTERIAN/QUEENS", "ADDRESSNUM": "56-45", "STREETNAME": "MAIN STREET", "ADDRESS": "56-45 MAIN STREET", "CITY": "FLUSHING", "ZIPCODE": 11355.0, "FACTYPE": "HOSPITAL", "FACSUBGRP": "HOSPITALS AND CLINICS", "FACGROUP": "HEALTH CARE", "FACDOMAIN": "HEALTH AND HUMAN SERVICES", "SERVAREA": "Regional", "OPNAME": "NewYork-Presbyterian/Queens", "OPABBREV": "Non-public", "OPTYPE": "Non-public", "OVERAGENCY": "NYS Department of Health", "OVERABBREV": "NYSDOH", "OVERLEVEL": "State", "CAPACITY": null, "CAPTYPE": null, "BORO": "QUEENS", "BIN": 4439898.0, "BBL": 4051650001.0, "LATITUDE": 40.74716774045249, "LONGITUDE": -73.825148591057129, "XCOORD": 1032698.6092233754, "YCOORD": 211538.35720600199, "CD": 407.0, "NTA2010": "QN62", "NTA2020": "QN0706", "COUNCIL": 20.0, "CT2010": 79900.0, "CT2020": 79900.0, "BOROCODE": 4.0, "SCHOOLDIST": 25.0, "POLICEPRCT": 109.0, "DATASOURCE": "nysdoh_healthfacilities", "UID": "e7e4564c4eef7741848e1dc09df414b8" }, "geometry": { "type": "Point", "coordinates": [ -73.825148591057129, 40.74716774045249 ] } },
{ "type": "Feature", "properties": { "the_geom": null, "FACNAME": "ROCKEFELLER UNIVERSITY HOSPITAL", "ADDRESSNUM": "1230", "STREETNAME": "YORK AVENUE", "ADDRESS": "1230 YORK AVENUE", "CITY": "NEW YORK", "ZIPCODE": 10065.0, "FACTYPE": "HOSPITAL", "FACSUBGRP": "HOSPITALS AND CLINICS", "FACGROUP": "HEALTH CARE", "FACDOMAIN": "HEALTH AND HUMAN SERVICES", "SERVAREA": "Regional", "OPNAME": "The Rockefeller University Inc", "OPABBREV": "Non-public", "OPTYPE": "Non-public", "OVERAGENCY": "NYS Department of Health", "OVERABBREV": "NYSDOH", "OVERLEVEL": "State", "CAPACITY": null, "CAPTYPE": null, "BORO": "MANHATTAN", "BIN": 1090764.0, "BBL": 1014800010.0, "LATITUDE": 40.762905332402312, "LONGITUDE": -73.956374254569724, "XCOORD": 996335.16834807955, "YCOORD": 217226.72872693971, "CD": 108.0, "NTA2010": "MN31", "NTA2020": "MN0801", "COUNCIL": 5.0, "CT2010": 11600.0, "CT2020": 11600.0, "BOROCODE": 1.0, "SCHOOLDIST": 2.0, "POLICEPRCT": 19.0, "DATASOURCE": "nysdoh_healthfacilities", "UID": "e83760d76f729f3c6f518be60bbba3c8" }, "geometry": { "type": "Point", "coordinates": [ -73.956374254569724, 40.762905332402312 ] } },
{ "type": "Feature", "properties": { "the_geom": null, "FACNAME": "HARLEM HOSPITAL CENTER", "ADDRESSNUM": "506", "STREETNAME": "LENOX AVENUE", "ADDRESS": "506 LENOX AVENUE", "CITY": "NEW YORK", "ZIPCODE": 10037.0, "FACTYPE": "ACUTE CARE HOSPITAL", "FACSUBGRP": "HOSPITALS AND CLINICS", "FACGROUP": "HEALTH CARE", "FACDOMAIN": "HEALTH AND HUMAN SERVICES", "SERVAREA": "Regional", "OPNAME": "NYC Health and Hospitals Corporation", "OPABBREV": "NYCHHC", "OPTYPE": "Public", "OVERAGENCY": "NYS Department of Health", "OVERABBREV": "NYSDOH", "OVERLEVEL": "State", "CAPACITY": null, "CAPTYPE": null, "BORO": "MANHATTAN", "BIN": 1053899.0, "BBL": 1017340001.0, "LATITUDE": 40.814111949013245, "LONGITUDE": -73.939744455600348, "XCOORD": 1000929.1079070496, "YCOORD": 235885.78382911719, "CD": 110.0, "NTA2010": "MN03", "NTA2020": "MN1002", "COUNCIL": 9.0, "CT2010": 21200.0, "CT2020": 21200.0, "BOROCODE": 1.0, "SCHOOLDIST": 5.0, "POLICEPRCT": 32.0, "DATASOURCE": "hhc_hospitals", "UID": "e99a2a433a5eac5903d4e816661bc8f4" }, "geometry": { "type": "Point", "coordinates": [ -73.939744455600348, 40.814111949013245 ] } },
{ "type": "Feature", "properties": { "the_geom": null, "FACNAME": "LONG ISLAND JEWISH MEDICAL CENTER", "ADDRESSNUM": "270-05", "STREETNAME": "76 AVENUE", "ADDRESS": "270-05 76 AVENUE", "CITY": "GLEN OAKS", "ZIPCODE": 11004.0, "FACTYPE": "HOSPITAL", "FACSUBGRP": "HOSPITALS AND CLINICS", "FACGROUP": "HEALTH CARE", "FACDOMAIN": "HEALTH AND HUMAN SERVICES", "SERVAREA": "Regional", "OPNAME": "Long Island Jewish Medical Center", "OPABBREV": "Non-public", "OPTYPE": "Non-public", "OVERAGENCY": "NYS Department of Health", "OVERABBREV": "NYSDOH", "OVERLEVEL": "State", "CAPACITY": null, "CAPTYPE": null, "BORO": "QUEENS", "BIN": 4439540.0, "BBL": 4085200002.0, "LATITUDE": 40.754503175499714, "LONGITUDE": -73.707666039421738, "XCOORD": 1065242.1838004219, "YCOORD": 214297.68482319647, "CD": 413.0, "NTA2010": "QN44", "NTA2020": "QN1301", "COUNCIL": 23.0, "CT2010": 155102.0, "CT2020": 155104.0, "BOROCODE": 4.0, "SCHOOLDIST": 26.0, "POLICEPRCT": 105.0, "DATASOURCE": "nysdoh_healthfacilities", "UID": "eaf1878c3b701e4bef2b8da0a7078cf2" }, "geometry": { "type": "Point", "coordinates": [ -73.707666039421738, 40.754503175499714 ] } },
{ "type": "Feature", "properties": { "the_geom": null, "FACNAME": "JACOBI MEDICAL CENTER", "ADDRESSNUM": "1400", "STREETNAME": "PELHAM PARKWAY", "ADDRESS": "1400 PELHAM PARKWAY", "CITY": "BRONX", "ZIPCODE": 10461.0, "FACTYPE": "ACUTE CARE HOSPITAL", "FACSUBGRP": "HOSPITALS AND CLINICS", "FACGROUP": "HEALTH CARE", "FACDOMAIN": "HEALTH AND HUMAN SERVICES", "SERVAREA": "Regional", "OPNAME": "NYC Health and Hospitals Corporation", "OPABBREV": "NYCHHC", "OPTYPE": "Public", "OVERAGENCY": "NYS Department of Health", "OVERABBREV": "NYSDOH", "OVERLEVEL": "State", "CAPACITY": null, "CAPTYPE": null, "BORO": "BRONX", "BIN": 2097550.0, "BBL": 2042050001.0, "LATITUDE": 40.856478461483441, "LONGITUDE": -73.847547739535941, "XCOORD": 1026422.848077254, "YCOORD": 251352.43728664165, "CD": 211.0, "NTA2010": "BX49", "NTA2020": "BX1102", "COUNCIL": 13.0, "CT2010": 29600.0, "CT2020": 29600.0, "BOROCODE": 2.0, "SCHOOLDIST": 11.0, "POLICEPRCT": 49.0, "DATASOURCE": "hhc_hospitals", "UID": "ec4f9668773eb0fa542645ada9472292" }, "geometry": { "type": "Point", "coordinates": [ -73.847547739535941, 40.856478461483441 ] } },
{ "type": "Feature", "properties": { "the_geom": null, "FACNAME": "WYCKOFF HEIGHTS MEDICAL CENTER", "ADDRESSNUM": "374", "STREETNAME": "STOCKHOLM STREET", "ADDRESS": "374 STOCKHOLM STREET", "CITY": "BROOKLYN", "ZIPCODE": 11237.0, "FACTYPE": "HOSPITAL", "FACSUBGRP": "HOSPITALS AND CLINICS", "FACGROUP": "HEALTH CARE", "FACDOMAIN": "HEALTH AND HUMAN SERVICES", "SERVAREA": "Regional", "OPNAME": "Wyckoff Heights Medical Center", "OPABBREV": "Non-public", "OPTYPE": "Non-public", "OVERAGENCY": "NYS Department of Health", "OVERABBREV": "NYSDOH", "OVERLEVEL": "State", "CAPACITY": null, "CAPTYPE": null, "BORO": "BROOKLYN", "BIN": 3074262.0, "BBL": 3032600001.0, "LATITUDE": 40.70410807028037, "LONGITUDE": -73.917683356127242, "XCOORD": 1007073.4173333097, "YCOORD": 195812.75529303192, "CD": 304.0, "NTA2010": "BK77", "NTA2020": "BK0401", "COUNCIL": 37.0, "CT2010": 44300.0, "CT2020": 44300.0, "BOROCODE": 3.0, "SCHOOLDIST": 32.0, "POLICEPRCT": 83.0, "DATASOURCE": "nysdoh_healthfacilities", "UID": "ef75a45ab91d8cb0e0f20cee79099ab4" }, "geometry": { "type": "Point", "coordinates": [ -73.917683356127242, 40.70410807028037 ] } },
{ "type": "Feature", "properties": { "the_geom": null, "FACNAME": "KINGSBROOK JEWISH MEDICAL VILLAGE", "ADDRESSNUM": "585", "STREETNAME": "SCHENECTADY AVENUE", "ADDRESS": "585 SCHENECTADY AVENUE", "CITY": "BROOKLYN", "ZIPCODE": 11203.0, "FACTYPE": "HOSPITAL", "FACSUBGRP": "HOSPITALS AND CLINICS", "FACGROUP": "HEALTH CARE", "FACDOMAIN": "HEALTH AND HUMAN SERVICES", "SERVAREA": "Regional", "OPNAME": "The Brookdale Hospital Medical Center", "OPABBREV": "Non-public", "OPTYPE": "Non-public", "OVERAGENCY": "NYS Department of Health", "OVERABBREV": "NYSDOH", "OVERLEVEL": "State", "CAPACITY": null, "CAPTYPE": null, "BORO": "BROOKLYN", "BIN": 3327565.0, "BBL": 3046020005.0, "LATITUDE": 40.659394489012769, "LONGITUDE": -73.933754014246688, "XCOORD": 1002629.9278982104, "YCOORD": 179518.53098269543, "CD": 309.0, "NTA2010": "BK60", "NTA2020": "BK1703", "COUNCIL": 41.0, "CT2010": 87800.0, "CT2020": 87800.0, "BOROCODE": 3.0, "SCHOOLDIST": 18.0, "POLICEPRCT": 71.0, "DATASOURCE": "nysdoh_healthfacilities", "UID": "f1afc409231be77e1a71faf3cba8d19c" }, "geometry": { "type": "Point", "coordinates": [ -73.933754014246688, 40.659394489012769 ] } },
{ "type": "Feature", "properties": { "the_geom": null, "FACNAME": "ELMHURST HOSPITAL CENTER", "ADDRESSNUM": null, "STREETNAME": null, "ADDRESS": "79 01 ELMHURST, NY", "CITY": "ELMHURST", "ZIPCODE": 11373.0, "FACTYPE": "ACUTE CARE HOSPITAL", "FACSUBGRP": "HOSPITALS AND CLINICS", "FACGROUP": "HEALTH CARE", "FACDOMAIN": "HEALTH AND HUMAN SERVICES", "SERVAREA": "Regional", "OPNAME": "NYC Health and Hospitals Corporation", "OPABBREV": "NYCHHC", "OPTYPE": "Public", "OVERAGENCY": "NYS Department of Health", "OVERABBREV": "NYSDOH", "OVERLEVEL": "State", "CAPACITY": null, "CAPTYPE": null, "BORO": "QUEENS", "BIN": 4038743.0, "BBL": 4015470001.0, "LATITUDE": 40.738710402563001, "LONGITUDE": -73.878351155182003, "XCOORD": 1017961.2957773471, "YCOORD": 208432.13383842481, "CD": 404.0, "NTA2010": "QN50", "NTA2020": "QN0401", "COUNCIL": 25.0, "CT2010": 48500.0, "CT2020": 48500.0, "BOROCODE": 4.0, "SCHOOLDIST": 24.0, "POLICEPRCT": 110.0, "DATASOURCE": "hhc_hospitals", "UID": "f33954852f0d2fc8fe3f64616bdbca4b" }, "geometry": { "type": "Point", "coordinates": [ -73.878351155182003, 40.738710402563001 ] } },
{ "type": "Feature", "properties": { "the_geom": null, "FACNAME": "ELMHURST HOSPITAL CENTER", "ADDRESSNUM": "79-01", "STREETNAME": "BROADWAY", "ADDRESS": "79-01 BROADWAY", "CITY": "ELMHURST", "ZIPCODE": 11373.0, "FACTYPE": "HOSPITAL", "FACSUBGRP": "HOSPITALS AND CLINICS", "FACGROUP": "HEALTH CARE", "FACDOMAIN": "HEALTH AND HUMAN SERVICES", "SERVAREA": "Regional", "OPNAME": "NYC Health and Hospitals Corporation", "OPABBREV": "Non-public", "OPTYPE": "Non-public", "OVERAGENCY": "NYS Department of Health", "OVERABBREV": "NYSDOH", "OVERLEVEL": "State", "CAPACITY": null, "CAPTYPE": null, "BORO": "QUEENS", "BIN": 4437132.0, "BBL": 4015000002.0, "LATITUDE": 40.74508000846123, "LONGITUDE": -73.885668261689574, "XCOORD": 1015930.5534339236, "YCOORD": 210750.05055224887, "CD": 404.0, "NTA2010": "QN29", "NTA2020": "QN0401", "COUNCIL": 25.0, "CT2010": 26700.0, "CT2020": 26700.0, "BOROCODE": 4.0, "SCHOOLDIST": 24.0, "POLICEPRCT": 110.0, "DATASOURCE": "nysdoh_healthfacilities", "UID": "f346647ff8b7d2ba9cabc886836e605e" }, "geometry": { "type": "Point", "coordinates": [ -73.885668261689574, 40.74508000846123 ] } },
{ "type": "Feature", "properties": { "the_geom": null, "FACNAME": "MOUNT SINAI HOSPITAL - MOUNT SINAI HOSPITAL OF QUEENS", "ADDRESSNUM": "25-10", "STREETNAME": "30 AVENUE", "ADDRESS": "25-10 30 AVENUE", "CITY": "ASTORIA", "ZIPCODE": 11102.0, "FACTYPE": "HOSPITAL", "FACSUBGRP": "HOSPITALS AND CLINICS", "FACGROUP": "HEALTH CARE", "FACDOMAIN": "HEALTH AND HUMAN SERVICES", "SERVAREA": "Regional", "OPNAME": "The Mount Sinai Hospital", "OPABBREV": "Non-public", "OPTYPE": "Non-public", "OVERAGENCY": "NYS Department of Health", "OVERABBREV": "NYSDOH", "OVERLEVEL": "State", "CAPACITY": null, "CAPTYPE": null, "BORO": "QUEENS", "BIN": 4436864.0, "BBL": 4005760012.0, "LATITUDE": 40.768248461047719, "LONGITUDE": -73.924865619880975, "XCOORD": 1005061.9931735088, "YCOORD": 219179.32316447463, "CD": 401.0, "NTA2010": "QN71", "NTA2020": "QN0103", "COUNCIL": 22.0, "CT2010": 7300.0, "CT2020": 7300.0, "BOROCODE": 4.0, "SCHOOLDIST": 30.0, "POLICEPRCT": 114.0, "DATASOURCE": "nysdoh_healthfacilities", "UID": "f7cfaabaf206591a39e3529ad38050b8" }, "geometry": { "type": "Point", "coordinates": [ -73.924865619880975, 40.768248461047719 ] } },
{ "type": "Feature", "properties": { "the_geom": null, "FACNAME": "HOSPITAL FOR SPECIAL SURGERY", "ADDRESSNUM": "535", "STREETNAME": "EAST 70 STREET", "ADDRESS": "535 EAST 70 STREET", "CITY": "NEW YORK", "ZIPCODE": 10021.0, "FACTYPE": "HOSPITAL", "FACSUBGRP": "HOSPITALS AND CLINICS", "FACGROUP": "HEALTH CARE", "FACDOMAIN": "HEALTH AND HUMAN SERVICES", "SERVAREA": "Regional", "OPNAME": "NY Society for the Relief of The Ruptured & Crippled", "OPABBREV": "Non-public", "OPTYPE": "Non-public", "OVERAGENCY": "NYS Department of Health", "OVERABBREV": "NYSDOH", "OVERLEVEL": "State", "CAPACITY": null, "CAPTYPE": null, "BORO": "MANHATTAN", "BIN": 1046256.0, "BBL": 1014820020.0, "LATITUDE": 40.765049530215727, "LONGITUDE": -73.952559726508241, "XCOORD": 997391.44261761522, "YCOORD": 218008.47981114371, "CD": 108.0, "NTA2010": "MN31", "NTA2020": "MN0801", "COUNCIL": 5.0, "CT2010": 12400.0, "CT2020": 12400.0, "BOROCODE": 1.0, "SCHOOLDIST": 2.0, "POLICEPRCT": 19.0, "DATASOURCE": "nysdoh_healthfacilities", "UID": "fa5a24e1afb536c42995694d92936eaf" }, "geometry": { "type": "Point", "coordinates": [ -73.952559726508241, 40.765049530215727 ] } },
{ "type": "Feature", "properties": { "the_geom": null, "FACNAME": "BELLEVUE HOSPITAL CENTER", "ADDRESSNUM": "462", "STREETNAME": "FIRST AVENUE", "ADDRESS": "462 FIRST AVENUE", "CITY": "NEW YORK", "ZIPCODE": 10016.0, "FACTYPE": "ACUTE CARE HOSPITAL", "FACSUBGRP": "HOSPITALS AND CLINICS", "FACGROUP": "HEALTH CARE", "FACDOMAIN": "HEALTH AND HUMAN SERVICES", "SERVAREA": "Regional", "OPNAME": "NYC Health and Hospitals Corporation", "OPABBREV": "NYCHHC", "OPTYPE": "Public", "OVERAGENCY": "NYS Department of Health", "OVERABBREV": "NYSDOH", "OVERLEVEL": "State", "CAPACITY": null, "CAPTYPE": null, "BORO": "MANHATTAN", "BIN": 1086515.0, "BBL": 1009620100.0, "LATITUDE": 40.739245269489935, "LONGITUDE": -73.97548758043726, "XCOORD": 991042.82280570955, "YCOORD": 208604.54527025748, "CD": 106.0, "NTA2010": "MN20", "NTA2020": "MN0603", "COUNCIL": 4.0, "CT2010": 6200.0, "CT2020": 6200.0, "BOROCODE": 1.0, "SCHOOLDIST": 2.0, "POLICEPRCT": 13.0, "DATASOURCE": "hhc_hospitals", "UID": "fcabc8d279454c214632804de9ace701" }, "geometry": { "type": "Point", "coordinates": [ -73.97548758043726, 40.739245269489935 ] } }
]
}
